{"type": "FeatureCollection", "features": [{"type": "Feature", "geometry": {"type": "MultiPolygon", "coordinates": [[[[-68.83616, -38.449807], [-68.836558, -38.449835], [-68.836956, -38.449807], [-68.837341, -38.449726], [-68.837703, -38.449593], [-68.83803, -38.449413], [-68.838313, -38.449191], [-68.838542, -38.448934], [-68.838711, -38.448649], [-68.838814, -38.448346], [-68.838849, -38.448033], [-68.838814, -38.44772], [-68.838711, -38.447417], [-68.838542, -38.447132], [-68.838313, -38.446875], [-68.83803, -38.446653], [-68.837703, -38.446473], [-68.837341, -38.44634], [-68.836956, -38.446259], [-68.836558, -38.446231], [-68.83616, -38.446259], [-68.835774, -38.44634], [-68.835412, -38.446473], [-68.835085, -38.446653], [-68.834803, -38.446875], [-68.834574, -38.447132], [-68.834405, -38.447417], [-68.834302, -38.44772], [-68.834267, -38.448033], [-68.834301, -38.448346], [-68.834405, -38.448649], [-68.834574, -38.448934], [-68.834803, -38.449191], [-68.835085, -38.449413], [-68.835412, -38.449593], [-68.835774, -38.449726], [-68.83616, -38.449807]]], [[[-68.846712, -38.449047], [-68.84711, -38.449074], [-68.847508, -38.449047], [-68.847893, -38.448966], [-68.848255, -38.448833], [-68.848582, -38.448653], [-68.848865, -38.448431], [-68.849094, -38.448173], [-68.849263, -38.447889], [-68.849366, -38.447585], [-68.849401, -38.447273], [-68.849366, -38.44696], [-68.849263, -38.446656], [-68.849094, -38.446372], [-68.848865, -38.446114], [-68.848582, -38.445892], [-68.848255, -38.445712], [-68.847893, -38.445579], [-68.847508, -38.445498], [-68.84711, -38.445471], [-68.846712, -38.445498], [-68.846326, -38.445579], [-68.845964, -38.445712], [-68.845637, -38.445892], [-68.845355, -38.446114], [-68.845126, -38.446372], [-68.844957, -38.446656], [-68.844853, -38.44696], [-68.844819, -38.447273], [-68.844853, -38.447585], [-68.844957, -38.447889], [-68.845126, -38.448173], [-68.845355, -38.448431], [-68.845637, -38.448653], [-68.845964, -38.448833], [-68.846326, -38.448966], [-68.846712, -38.449047]]]]}, "properties": {"areayacimiento": "BARREALES COLORADOS", "yacimiento": "BARREALES COLORADOS"}}, {"type": "Feature", "geometry": {"type": "MultiPolygon", "coordinates": [[[[-68.84814, -38.712679], [-68.848539, -38.712706], [-68.848938, -38.712679], [-68.849325, -38.712597], [-68.849689, -38.712465], [-68.850017, -38.712284], [-68.8503, -38.712062], [-68.85053, -38.711805], [-68.8507, -38.71152], [-68.850803, -38.711217], [-68.850838, -38.710904], [-68.850803, -38.710591], [-68.8507, -38.710288], [-68.85053, -38.710003], [-68.8503, -38.709746], [-68.850017, -38.709524], [-68.849689, -38.709344], [-68.849325, -38.709211], [-68.848938, -38.70913], [-68.848539, -38.709103], [-68.84814, -38.70913], [-68.847752, -38.709211], [-68.847389, -38.709344], [-68.847061, -38.709524], [-68.846777, -38.709746], [-68.846547, -38.710003], [-68.846378, -38.710288], [-68.846274, -38.710591], [-68.846239, -38.710904], [-68.846274, -38.711217], [-68.846378, -38.71152], [-68.846547, -38.711805], [-68.846777, -38.712062], [-68.847061, -38.712284], [-68.847389, -38.712465], [-68.847752, -38.712597], [-68.84814, -38.712679]]], [[[-68.891256, -38.710925], [-68.891656, -38.710952], [-68.892055, -38.710925], [-68.892442, -38.710844], [-68.892805, -38.710711], [-68.893134, -38.710531], [-68.893417, -38.710309], [-68.893647, -38.710051], [-68.893816, -38.709767], [-68.89392, -38.709463], [-68.893955, -38.709151], [-68.89392, -38.708838], [-68.893816, -38.708534], [-68.893647, -38.70825], [-68.893417, -38.707992], [-68.893134, -38.70777], [-68.892805, -38.70759], [-68.892442, -38.707458], [-68.892055, -38.707376], [-68.891656, -38.707349], [-68.891256, -38.707376], [-68.890869, -38.707458], [-68.890506, -38.70759], [-68.890178, -38.70777], [-68.889894, -38.707992], [-68.889664, -38.70825], [-68.889495, -38.708534], [-68.889391, -38.708838], [-68.889356, -38.709151], [-68.889391, -38.709463], [-68.889495, -38.709767], [-68.889664, -38.710051], [-68.889894, -38.710309], [-68.890178, -38.710531], [-68.890506, -38.710711], [-68.890869, -38.710844], [-68.891256, -38.710925]]], [[[-68.856945, -38.70742], [-68.857345, -38.707447], [-68.857744, -38.70742], [-68.858131, -38.707339], [-68.858494, -38.707206], [-68.858823, -38.707026], [-68.859106, -38.706804], [-68.859336, -38.706546], [-68.859505, -38.706262], [-68.859609, -38.705958], [-68.859644, -38.705646], [-68.859609, -38.705333], [-68.859505, -38.705029], [-68.859336, -38.704745], [-68.859106, -38.704487], [-68.858822, -38.704265], [-68.858494, -38.704085], [-68.858131, -38.703953], [-68.857744, -38.703871], [-68.857345, -38.703844], [-68.856945, -38.703871], [-68.856558, -38.703953], [-68.856195, -38.704085], [-68.855867, -38.704265], [-68.855583, -38.704487], [-68.855353, -38.704745], [-68.855184, -38.705029], [-68.85508, -38.705333], [-68.855045, -38.705646], [-68.85508, -38.705958], [-68.855184, -38.706262], [-68.855353, -38.706546], [-68.855583, -38.706804], [-68.855867, -38.707026], [-68.856195, -38.707206], [-68.856558, -38.707339], [-68.856945, -38.70742]]], [[[-68.819608, -38.69803], [-68.820008, -38.698057], [-68.820407, -38.69803], [-68.820794, -38.697949], [-68.821157, -38.697816], [-68.821485, -38.697636], [-68.821769, -38.697414], [-68.821999, -38.697156], [-68.822168, -38.696872], [-68.822272, -38.696568], [-68.822307, -38.696256], [-68.822272, -38.695943], [-68.822168, -38.695639], [-68.821999, -38.695355], [-68.821769, -38.695098], [-68.821485, -38.694875], [-68.821157, -38.694695], [-68.820794, -38.694563], [-68.820407, -38.694481], [-68.820008, -38.694454], [-68.819608, -38.694481], [-68.819221, -38.694563], [-68.818858, -38.694695], [-68.81853, -38.694875], [-68.818247, -38.695098], [-68.818017, -38.695355], [-68.817847, -38.695639], [-68.817744, -38.695943], [-68.817709, -38.696256], [-68.817744, -38.696568], [-68.817847, -38.696872], [-68.818017, -38.697156], [-68.818247, -38.697414], [-68.81853, -38.697636], [-68.818858, -38.697816], [-68.819221, -38.697949], [-68.819608, -38.69803]]]]}, "properties": {"areayacimiento": "CUPEN MAHUIDA NORTE", "yacimiento": "CUPEN MAHUIDA"}}, {"type": "Feature", "geometry": {"type": "MultiPolygon", "coordinates": [[[[-68.707704, -38.634361], [-68.707305, -38.634389], [-68.706918, -38.63447], [-68.706555, -38.634603], [-68.706227, -38.634783], [-68.705944, -38.635005], [-68.705715, -38.635262], [-68.705545, -38.635547], [-68.705442, -38.63585], [-68.705407, -38.636163], [-68.705442, -38.636476], [-68.705545, -38.636779], [-68.705715, -38.637064], [-68.705944, -38.637321], [-68.706227, -38.637543], [-68.706555, -38.637723], [-68.706918, -38.637856], [-68.707305, -38.637937], [-68.707704, -38.637965], [-68.708103, -38.637937], [-68.708489, -38.637856], [-68.708852, -38.637723], [-68.70918, -38.637543], [-68.709463, -38.637321], [-68.709693, -38.637064], [-68.709862, -38.636779], [-68.709966, -38.636476], [-68.710001, -38.636163], [-68.709966, -38.63585], [-68.709862, -38.635547], [-68.709693, -38.635262], [-68.709463, -38.635005], [-68.70918, -38.634783], [-68.708852, -38.634603], [-68.708489, -38.63447], [-68.708103, -38.634389], [-68.707704, -38.634361]]]]}, "properties": {"areayacimiento": "EL CORDON OESTE", "yacimiento": "EL CORDON OESTE"}}, {"type": "Feature", "geometry": {"type": "MultiPolygon", "coordinates": [[[[-69.485312, -37.116625], [-69.484915, -37.116344], [-69.484822, -37.116235], [-69.484724, -37.116131], [-69.484622, -37.116031], [-69.484515, -37.115936], [-69.484404, -37.115845], [-69.484289, -37.11576], [-69.484171, -37.11568], [-69.484049, -37.115605], [-69.483923, -37.115536], [-69.483795, -37.115473], [-69.483664, -37.115415], [-69.483531, -37.115363], [-69.48339, -37.115315], [-69.483246, -37.115275], [-69.483101, -37.11524], [-69.482955, -37.115213], [-69.482807, -37.115192], [-69.482659, -37.115179], [-69.48251, -37.115172], [-69.482361, -37.115172], [-69.482212, -37.11518], [-69.482063, -37.115194], [-69.481916, -37.115215], [-69.481769, -37.115242], [-69.481624, -37.115277], [-69.481481, -37.115318], [-69.48134, -37.115366], [-69.481201, -37.115421], [-69.481065, -37.115482], [-69.480932, -37.115549], [-69.480802, -37.115622], [-69.480676, -37.115702], [-69.480554, -37.115787], [-69.480436, -37.115877], [-69.480322, -37.115973], [-69.480212, -37.116075], [-69.480108, -37.116181], [-69.480008, -37.116292], [-69.479914, -37.116407], [-69.479861, -37.116477], [-69.479811, -37.116548], [-69.477305, -37.119961], [-69.475021, -37.12196], [-69.473117, -37.12453], [-69.470833, -37.126623], [-69.468739, -37.128717], [-69.466074, -37.129574], [-69.462917, -37.129754], [-69.462743, -37.129764], [-69.459221, -37.129955], [-69.457317, -37.129955], [-69.455128, -37.129955], [-69.453423, -37.129658], [-69.452939, -37.129574], [-69.451131, -37.129288], [-69.449798, -37.128717], [-69.447609, -37.127956], [-69.445325, -37.127385], [-69.44247, -37.126052], [-69.439424, -37.125101], [-69.43733, -37.124244], [-69.435488, -37.123825], [-69.435372, -37.123843], [-69.435257, -37.123867], [-69.435144, -37.123898], [-69.435033, -37.123935], [-69.434925, -37.123979], [-69.434819, -37.124029], [-69.434716, -37.124085], [-69.434616, -37.124147], [-69.434521, -37.124215], [-69.434429, -37.124288], [-69.434342, -37.124367], [-69.43426, -37.12445], [-69.434182, -37.124538], [-69.43411, -37.12463], [-69.434044, -37.124726], [-69.433983, -37.124826], [-69.433928, -37.124929], [-69.433879, -37.125035], [-69.433837, -37.125144], [-69.4338, -37.125255], [-69.433771, -37.125368], [-69.433748, -37.125482], [-69.433731, -37.125598], [-69.433721, -37.125714], [-69.433718, -37.125831], [-69.433722, -37.125948], [-69.433733, -37.126064], [-69.43375, -37.12618], [-69.433774, -37.126294], [-69.433791, -37.126431], [-69.433815, -37.126567], [-69.433845, -37.126702], [-69.433881, -37.126835], [-69.433924, -37.126966], [-69.433973, -37.127096], [-69.434028, -37.127222], [-69.43409, -37.127346], [-69.434157, -37.127467], [-69.434229, -37.127584], [-69.434308, -37.127698], [-69.434391, -37.127808], [-69.4357, -37.128998], [-69.438199, -37.130187], [-69.440578, -37.131377], [-69.442601, -37.132686], [-69.444266, -37.136374], [-69.445218, -37.13911], [-69.447122, -37.143988], [-69.450453, -37.15077], [-69.452594, -37.151484], [-69.45426, -37.152079], [-69.45796, -37.155149], [-69.457113, -37.174699], [-69.461449, -37.184661], [-69.461607, -37.184343], [-69.461611, -37.184354], [-69.46193, -37.184947], [-69.462482, -37.185864], [-69.463002, -37.186596], [-69.463693, -37.187369], [-69.464126, -37.187736], [-69.464643, -37.188005], [-69.46536, -37.188299], [-69.466077, -37.188504], [-69.46688, -37.188658], [-69.46768, -37.188745], [-69.468827, -37.188925], [-69.471146, -37.189119], [-69.473665, -37.189406], [-69.474952, -37.189536], [-69.476355, -37.189643], [-69.477442, -37.189661], [-69.478213, -37.189609], [-69.479243, -37.189469], [-69.479676, -37.189355], [-69.482091, -37.189345], [-69.485467, -37.189331], [-69.489135, -37.189199], [-69.493241, -37.188948], [-69.498815, -37.188334], [-69.501889, -37.187384], [-69.504221, -37.185027], [-69.506696, -37.182079], [-69.508147, -37.179726], [-69.508368, -37.17942], [-69.508584, -37.17911], [-69.508794, -37.178796], [-69.508999, -37.178479], [-69.509198, -37.178157], [-69.509391, -37.177833], [-69.509578, -37.177505], [-69.509759, -37.177173], [-69.509934, -37.176839], [-69.510102, -37.176501], [-69.510265, -37.17616], [-69.510422, -37.175816], [-69.510572, -37.17547], [-69.510716, -37.175121], [-69.510854, -37.174769], [-69.510985, -37.174415], [-69.51111, -37.174059], [-69.511229, -37.1737], [-69.511341, -37.17334], [-69.511446, -37.172977], [-69.511545, -37.172612], [-69.511638, -37.172246], [-69.511723, -37.171878], [-69.511802, -37.171509], [-69.511875, -37.171139], [-69.51194, -37.170767], [-69.511999, -37.170394], [-69.512051, -37.17002], [-69.512097, -37.169645], [-69.512135, -37.169269], [-69.512167, -37.168893], [-69.512192, -37.168516], [-69.51221, -37.168139], [-69.51222, -37.167813], [-69.512225, -37.167488], [-69.512225, -37.167163], [-69.51222, -37.166838], [-69.51221, -37.166512], [-69.512192, -37.166136], [-69.512168, -37.16576], [-69.512136, -37.165384], [-69.512098, -37.165009], [-69.512052, -37.164634], [-69.512001, -37.164261], [-69.511942, -37.163889], [-69.511877, -37.163517], [-69.511805, -37.163147], [-69.511726, -37.162778], [-69.511641, -37.162411], [-69.511549, -37.162045], [-69.51145, -37.161681], [-69.511345, -37.161319], [-69.511234, -37.160959], [-69.511122, -37.160619], [-69.511004, -37.160281], [-69.51088, -37.159944], [-69.510751, -37.15961], [-69.510616, -37.159278], [-69.510475, -37.158949], [-69.510329, -37.158622], [-69.510177, -37.158297], [-69.510019, -37.157975], [-69.508487, -37.156441], [-69.507393, -37.155347], [-69.506298, -37.154468], [-69.504547, -37.152719], [-69.502793, -37.150969], [-69.500605, -37.148996], [-69.499072, -37.147025], [-69.497978, -37.145272], [-69.496958, -37.142046], [-69.497553, -37.140647], [-69.49828, -37.13863], [-69.498644, -37.13748], [-69.498835, -37.136542], [-69.499047, -37.134523], [-69.499042, -37.133811], [-69.498976, -37.132689], [-69.498827, -37.131888], [-69.498352, -37.129849], [-69.498058, -37.128774], [-69.497765, -37.127905], [-69.497385, -37.126947], [-69.497094, -37.126399], [-69.496602, -37.125549], [-69.496111, -37.124867], [-69.495476, -37.124157], [-69.49493, -37.123637], [-69.494442, -37.123409], [-69.493726, -37.12316], [-69.492638, -37.12289], [-69.490071, -37.121265], [-69.487572, -37.118528], [-69.485312, -37.116625]]]]}, "properties": {"areayacimiento": "PASO DE LAS BARDAS NORTE", "yacimiento": "PASO DE LAS BARDAS NORTE"}}, {"type": "Feature", "geometry": {"type": "MultiPolygon", "coordinates": [[[[-68.884717, -38.695223], [-68.870769, -38.692878], [-68.861416, -38.693122], [-68.854658, -38.693979], [-68.850851, -38.69455], [-68.844474, -38.697596], [-68.838097, -38.699785], [-68.826771, -38.701403], [-68.814683, -38.70283], [-68.805737, -38.704734], [-68.80212, -38.706542], [-68.800787, -38.709778], [-68.800826, -38.712643], [-68.802934, -38.713404], [-68.809073, -38.715973], [-68.81507, -38.717544], [-68.822065, -38.718829], [-68.829204, -38.721399], [-68.840625, -38.72354], [-68.844052, -38.72611], [-68.854188, -38.728822], [-68.865895, -38.728537], [-68.87546, -38.728394], [-68.881171, -38.729822], [-68.889186, -38.725062], [-68.896058, -38.722435], [-68.901415, -38.721525], [-68.910813, -38.720919], [-68.918797, -38.720211], [-68.924153, -38.717584], [-68.927084, -38.713744], [-68.931822, -38.707328], [-68.927159, -38.706139], [-68.920691, -38.704036], [-68.917123, -38.702984], [-68.914931, -38.702122], [-68.902563, -38.698883], [-68.886036, -38.695333], [-68.884717, -38.695223]]]]}, "properties": {"areayacimiento": "BARROSA NORTE", "yacimiento": "BARROSA NORTE"}}, {"type": "Feature", "geometry": {"type": "MultiPolygon", "coordinates": [[[[-68.802934, -38.713404], [-68.775477, -38.703501], [-68.762967, -38.704395], [-68.754566, -38.707147], [-68.749167, -38.708916], [-68.744408, -38.709629], [-68.739173, -38.709629], [-68.733224, -38.709629], [-68.727989, -38.710819], [-68.723944, -38.711295], [-68.720851, -38.712247], [-68.717282, -38.713912], [-68.715854, -38.715816], [-68.714426, -38.718671], [-68.714902, -38.721289], [-68.718472, -38.72343], [-68.723944, -38.725572], [-68.73251, -38.726286], [-68.736555, -38.727713], [-68.741076, -38.728427], [-68.746311, -38.729617], [-68.755275, -38.734381], [-68.760183, -38.737057], [-68.769701, -38.742857], [-68.773865, -38.748211], [-68.778029, -38.750144], [-68.783531, -38.750888], [-68.787358, -38.750515], [-68.790075, -38.748657], [-68.796321, -38.74598], [-68.802716, -38.745088], [-68.804352, -38.745088], [-68.809854, -38.743006], [-68.814762, -38.739883], [-68.817885, -38.737504], [-68.819967, -38.73215], [-68.82071, -38.726945], [-68.821031, -38.718639], [-68.81507, -38.717544], [-68.809073, -38.715973], [-68.802934, -38.713404]]]]}, "properties": {"areayacimiento": "EL TRIANGULO", "yacimiento": "EL TRIANGULO"}}, {"type": "Feature", "geometry": {"type": "MultiPolygon", "coordinates": [[[[-68.922532, -38.767665], [-68.932161, -38.766595], [-68.952668, -38.764812], [-68.965864, -38.763564], [-68.982982, -38.762672], [-69.030593, -38.758036], [-69.041468, -38.755618], [-69.028257, -38.747587], [-69.020621, -38.743603], [-69.014579, -38.740365], [-69.009233, -38.738424], [-69.008853, -38.738123], [-69.003128, -38.732894], [-68.998675, -38.730651], [-68.989728, -38.727353], [-68.989466, -38.727123], [-68.986281, -38.726092], [-68.975125, -38.72259], [-68.971779, -38.720842], [-68.96754, -38.719269], [-68.962852, -38.717867], [-68.956828, -38.716117], [-68.953704, -38.714895], [-68.94835, -38.712794], [-68.942997, -38.711044], [-68.939873, -38.709817], [-68.935414, -38.708243], [-68.931822, -38.707328], [-68.927084, -38.713744], [-68.924153, -38.717584], [-68.918797, -38.720211], [-68.910813, -38.720919], [-68.901415, -38.721525], [-68.896058, -38.722435], [-68.889186, -38.725062], [-68.881171, -38.729822], [-68.881599, -38.730964], [-68.876888, -38.735104], [-68.875032, -38.738531], [-68.874033, -38.740529], [-68.872462, -38.743385], [-68.870606, -38.747382], [-68.869321, -38.749952], [-68.87132, -38.751951], [-68.873319, -38.752807], [-68.875032, -38.752807], [-68.876209, -38.753291], [-68.869659, -38.761967], [-68.868408, -38.763555], [-68.873612, -38.764705], [-68.877162, -38.767193], [-68.878677, -38.768332], [-68.891282, -38.767966], [-68.922532, -38.767665]], [[-68.955122, -38.733114], [-68.954967, -38.745932], [-68.95508, -38.750107], [-68.953501, -38.752476], [-68.95147, -38.75462], [-68.948987, -38.755974], [-68.947521, -38.755748], [-68.944926, -38.755071], [-68.939397, -38.754733], [-68.936238, -38.754845], [-68.929468, -38.755635], [-68.924616, -38.755861], [-68.92078, -38.756199], [-68.914687, -38.756425], [-68.908933, -38.756312], [-68.904532, -38.756087], [-68.900922, -38.755635], [-68.896747, -38.754056], [-68.892572, -38.752589], [-68.888962, -38.750445], [-68.886254, -38.748527], [-68.883997, -38.746722], [-68.883207, -38.744578], [-68.882929, -38.742351], [-68.887678, -38.741164], [-68.897929, -38.737546], [-68.908332, -38.737395], [-68.911196, -38.737464], [-68.911866, -38.737808], [-68.915026, -38.738259], [-68.918862, -38.738823], [-68.922021, -38.739049], [-68.92676, -38.7395], [-68.935448, -38.74108], [-68.939961, -38.742547], [-68.943684, -38.742885], [-68.947972, -38.741531], [-68.9491, -38.7395], [-68.950567, -38.737244], [-68.950696, -38.733417], [-68.950592, -38.733114], [-68.950557, -38.732801], [-68.950592, -38.732488], [-68.950696, -38.732185], [-68.950865, -38.7319], [-68.951095, -38.731643], [-68.951379, -38.731421], [-68.951707, -38.731241], [-68.95207, -38.731108], [-68.952458, -38.731027], [-68.952857, -38.730999], [-68.953257, -38.731027], [-68.953644, -38.731108], [-68.954007, -38.731241], [-68.954336, -38.731421], [-68.954619, -38.731643], [-68.954849, -38.7319], [-68.955019, -38.732185], [-68.955122, -38.732488], [-68.955157, -38.732801], [-68.955122, -38.733114]], [[-68.962005, -38.755421], [-68.961891, -38.755424], [-68.961777, -38.755421], [-68.961663, -38.75541], [-68.96155, -38.755394], [-68.961438, -38.755371], [-68.961328, -38.755341], [-68.96122, -38.755305], [-68.961113, -38.755263], [-68.96101, -38.755215], [-68.960905, -38.755158], [-68.960804, -38.755095], [-68.960707, -38.755027], [-68.960614, -38.754952], [-68.960526, -38.754872], [-68.960442, -38.754787], [-68.960364, -38.754698], [-68.960292, -38.754603], [-68.960225, -38.754505], [-68.960165, -38.754402], [-68.960111, -38.754296], [-68.960063, -38.754187], [-68.960022, -38.754076], [-68.959987, -38.753962], [-68.95996, -38.753846], [-68.959939, -38.753729], [-68.959926, -38.75361], [-68.95992, -38.753492], [-68.959921, -38.753373], [-68.959929, -38.753254], [-68.959944, -38.753136], [-68.959966, -38.753019], [-68.959996, -38.752904], [-68.960032, -38.75279], [-68.960075, -38.752679], [-68.959728, -38.743006], [-68.959694, -38.742891], [-68.959667, -38.742773], [-68.959646, -38.742654], [-68.959633, -38.742535], [-68.959627, -38.742414], [-68.959627, -38.742294], [-68.959635, -38.742173], [-68.95965, -38.742054], [-68.959672, -38.741935], [-68.959701, -38.741818], [-68.959736, -38.741703], [-68.959778, -38.74159], [-68.959827, -38.74148], [-68.959882, -38.741372], [-68.959943, -38.741269], [-68.96001, -38.741168], [-68.960083, -38.741073], [-68.960162, -38.740981], [-68.960246, -38.740894], [-68.960334, -38.740812], [-68.960427, -38.740736], [-68.960525, -38.740665], [-68.960626, -38.7406], [-68.960732, -38.740541], [-68.96084, -38.740489], [-68.960951, -38.740442], [-68.961065, -38.740403], [-68.961181, -38.74037], [-68.961299, -38.740344], [-68.961418, -38.740324], [-68.961538, -38.740312], [-68.961658, -38.740307], [-68.961779, -38.740309], [-68.961899, -38.740318], [-68.962019, -38.740334], [-68.962137, -38.740357], [-68.966154, -38.742745], [-68.970168, -38.74514], [-68.970261, -38.745212], [-68.970351, -38.74529], [-68.970435, -38.745373], [-68.970515, -38.745461], [-68.970589, -38.745553], [-68.970658, -38.74565], [-68.970721, -38.74575], [-68.970778, -38.745854], [-68.970829, -38.745961], [-68.970873, -38.746071], [-68.970911, -38.746184], [-68.970943, -38.746298], [-68.970968, -38.746414], [-68.970985, -38.746531], [-68.970996, -38.746649], [-68.971, -38.746768], [-68.970997, -38.746886], [-68.970988, -38.747004], [-68.970971, -38.747122], [-68.970947, -38.747238], [-68.970917, -38.747352], [-68.963526, -38.754673], [-68.963242, -38.754895], [-68.963156, -38.75497], [-68.963066, -38.75504], [-68.962972, -38.755105], [-68.962874, -38.755165], [-68.962774, -38.755218], [-68.96267, -38.755266], [-68.962563, -38.755308], [-68.962455, -38.755343], [-68.962344, -38.755373], [-68.962232, -38.755395], [-68.962119, -38.755411], [-68.962005, -38.755421]], [[-69.003286, -38.756108], [-69.003002, -38.755886], [-69.002772, -38.755629], [-69.002603, -38.755344], [-69.002499, -38.755041], [-69.002464, -38.754728], [-69.002499, -38.754415], [-69.002603, -38.754112], [-69.002772, -38.753827], [-69.003002, -38.75357], [-69.003286, -38.753348], [-69.003615, -38.753168], [-69.003978, -38.753035], [-69.004365, -38.752954], [-69.004765, -38.752926], [-69.005164, -38.752954], [-69.005552, -38.753035], [-69.005915, -38.753168], [-69.006244, -38.753348], [-69.006527, -38.75357], [-69.006758, -38.753827], [-69.006927, -38.754112], [-69.007031, -38.754415], [-69.007066, -38.754728], [-69.007031, -38.755041], [-69.006927, -38.755344], [-69.006758, -38.755629], [-69.006528, -38.755886], [-69.006244, -38.756108], [-69.005915, -38.756288], [-69.005552, -38.756421], [-69.005164, -38.756502], [-69.004765, -38.756529], [-69.004365, -38.756502], [-69.003978, -38.756421], [-69.003614, -38.756288], [-69.003286, -38.756108]]], [[[-68.869357, -38.741172], [-68.869756, -38.741199], [-68.870156, -38.741172], [-68.870543, -38.741091], [-68.870906, -38.740958], [-68.871235, -38.740778], [-68.871518, -38.740556], [-68.871748, -38.740299], [-68.871918, -38.740014], [-68.872022, -38.739711], [-68.872056, -38.739398], [-68.872022, -38.739085], [-68.871918, -38.738782], [-68.871748, -38.738497], [-68.871518, -38.73824], [-68.871235, -38.738018], [-68.870906, -38.737838], [-68.870543, -38.737705], [-68.870156, -38.737624], [-68.869756, -38.737596], [-68.869357, -38.737624], [-68.868969, -38.737705], [-68.868606, -38.737838], [-68.868278, -38.738018], [-68.867994, -38.73824], [-68.867764, -38.738497], [-68.867595, -38.738782], [-68.867491, -38.739085], [-68.867456, -38.739398], [-68.867491, -38.739711], [-68.867594, -38.740014], [-68.867764, -38.740299], [-68.867994, -38.740556], [-68.868277, -38.740778], [-68.868606, -38.740958], [-68.868969, -38.741091], [-68.869357, -38.741172]]], [[[-68.864406, -38.725675], [-68.864806, -38.725703], [-68.865205, -38.725675], [-68.865592, -38.725594], [-68.865956, -38.725461], [-68.866284, -38.725281], [-68.866567, -38.725059], [-68.866797, -38.724802], [-68.866967, -38.724517], [-68.86707, -38.724214], [-68.867105, -38.723901], [-68.86707, -38.723588], [-68.866967, -38.723285], [-68.866797, -38.723], [-68.866567, -38.722743], [-68.866284, -38.722521], [-68.865955, -38.722341], [-68.865592, -38.722208], [-68.865205, -38.722127], [-68.864806, -38.722099], [-68.864406, -38.722127], [-68.864019, -38.722208], [-68.863656, -38.722341], [-68.863327, -38.722521], [-68.863044, -38.722743], [-68.862814, -38.723], [-68.862644, -38.723285], [-68.862541, -38.723588], [-68.862506, -38.723901], [-68.862541, -38.724214], [-68.862644, -38.724517], [-68.862814, -38.724802], [-68.863044, -38.725059], [-68.863327, -38.725281], [-68.863656, -38.725461], [-68.864019, -38.725594], [-68.864406, -38.725675]]], [[[-68.854543, -38.698497], [-68.854942, -38.698525], [-68.855341, -38.698497], [-68.855728, -38.698416], [-68.856092, -38.698283], [-68.85642, -38.698103], [-68.856703, -38.697881], [-68.856933, -38.697624], [-68.857103, -38.697339], [-68.857206, -38.697036], [-68.857241, -38.696723], [-68.857206, -38.69641], [-68.857102, -38.696107], [-68.856933, -38.695822], [-68.856703, -38.695565], [-68.85642, -38.695343], [-68.856092, -38.695163], [-68.855728, -38.69503], [-68.855341, -38.694949], [-68.854942, -38.694921], [-68.854543, -38.694949], [-68.854156, -38.69503], [-68.853793, -38.695163], [-68.853464, -38.695343], [-68.853181, -38.695565], [-68.852951, -38.695822], [-68.852782, -38.696107], [-68.852678, -38.69641], [-68.852643, -38.696723], [-68.852678, -38.697036], [-68.852782, -38.697339], [-68.852951, -38.697624], [-68.853181, -38.697881], [-68.853464, -38.698103], [-68.853793, -38.698283], [-68.854156, -38.698416], [-68.854543, -38.698497]]], [[[-68.731493, -38.631738], [-68.731892, -38.631765], [-68.732291, -38.631738], [-68.732678, -38.631656], [-68.733041, -38.631524], [-68.733368, -38.631344], [-68.733652, -38.631121], [-68.733881, -38.630864], [-68.73405, -38.63058], [-68.734154, -38.630276], [-68.734189, -38.629963], [-68.734154, -38.629651], [-68.73405, -38.629347], [-68.733881, -38.629063], [-68.733652, -38.628805], [-68.733368, -38.628583], [-68.73304, -38.628403], [-68.732678, -38.62827], [-68.732291, -38.628189], [-68.731892, -38.628162], [-68.731493, -38.628189], [-68.731107, -38.62827], [-68.730744, -38.628403], [-68.730416, -38.628583], [-68.730133, -38.628805], [-68.729903, -38.629063], [-68.729734, -38.629347], [-68.72963, -38.629651], [-68.729595, -38.629963], [-68.72963, -38.630276], [-68.729734, -38.63058], [-68.729903, -38.630864], [-68.730133, -38.631121], [-68.730416, -38.631344], [-68.730744, -38.631524], [-68.731106, -38.631656], [-68.731493, -38.631738]]]]}, "properties": {"areayacimiento": "SIERRA BARROSA", "yacimiento": "SIERRA BARROSA"}}, {"type": "Feature", "geometry": {"type": "MultiPolygon", "coordinates": [[[[-68.911196, -38.737464], [-68.908332, -38.737395], [-68.897929, -38.737546], [-68.887678, -38.741164], [-68.882929, -38.742351], [-68.883207, -38.744578], [-68.883997, -38.746722], [-68.886254, -38.748527], [-68.888962, -38.750445], [-68.892572, -38.752589], [-68.896747, -38.754056], [-68.900922, -38.755635], [-68.904532, -38.756087], [-68.908933, -38.756312], [-68.914687, -38.756425], [-68.92078, -38.756199], [-68.924616, -38.755861], [-68.929468, -38.755635], [-68.936238, -38.754845], [-68.939397, -38.754733], [-68.944926, -38.755071], [-68.947521, -38.755748], [-68.948987, -38.755974], [-68.95147, -38.75462], [-68.953501, -38.752476], [-68.95508, -38.750107], [-68.954967, -38.745932], [-68.955122, -38.733114], [-68.955157, -38.732801], [-68.955122, -38.732488], [-68.955019, -38.732185], [-68.954849, -38.7319], [-68.954619, -38.731643], [-68.954336, -38.731421], [-68.954007, -38.731241], [-68.953644, -38.731108], [-68.953257, -38.731027], [-68.952857, -38.730999], [-68.952458, -38.731027], [-68.95207, -38.731108], [-68.951707, -38.731241], [-68.951379, -38.731421], [-68.951095, -38.731643], [-68.950865, -38.7319], [-68.950696, -38.732185], [-68.950592, -38.732488], [-68.950557, -38.732801], [-68.950592, -38.733114], [-68.950696, -38.733417], [-68.950567, -38.737244], [-68.9491, -38.7395], [-68.947972, -38.741531], [-68.943684, -38.742885], [-68.939961, -38.742547], [-68.935448, -38.74108], [-68.92676, -38.7395], [-68.922021, -38.739049], [-68.918862, -38.738823], [-68.915026, -38.738259], [-68.911866, -38.737808], [-68.911196, -38.737464]]]]}, "properties": {"areayacimiento": "CUPEN MAHUIDA", "yacimiento": "CUPEN MAHUIDA"}}, {"type": "Feature", "geometry": {"type": "MultiPolygon", "coordinates": [[[[-68.782724, -38.689019], [-68.782748, -38.688815], [-68.782765, -38.68861], [-68.782776, -38.688404], [-68.782781, -38.688198], [-68.78278, -38.687993], [-68.782772, -38.687787], [-68.782758, -38.687582], [-68.782737, -38.687377], [-68.78271, -38.687173], [-68.782677, -38.68697], [-68.782644, -38.686803], [-68.782605, -38.686639], [-68.782559, -38.686475], [-68.782507, -38.686314], [-68.782448, -38.686155], [-68.782383, -38.685999], [-68.782312, -38.685845], [-68.782235, -38.685694], [-68.782153, -38.685546], [-68.782064, -38.685401], [-68.78197, -38.68526], [-68.781871, -38.685123], [-68.781766, -38.68499], [-68.781656, -38.684861], [-68.781541, -38.684737], [-68.781421, -38.684617], [-68.781297, -38.684502], [-68.781168, -38.684391], [-68.781052, -38.6843], [-68.780934, -38.684212], [-68.780622, -38.683982], [-68.780308, -38.683757], [-68.779989, -38.683538], [-68.779667, -38.683324], [-68.779341, -38.683116], [-68.779011, -38.682913], [-68.778678, -38.682716], [-68.778342, -38.682524], [-68.778003, -38.682339], [-68.777661, -38.682159], [-68.777315, -38.681984], [-68.776967, -38.681816], [-68.776616, -38.681654], [-68.776262, -38.681497], [-68.775906, -38.681347], [-68.775547, -38.681203], [-68.775186, -38.681064], [-68.774822, -38.680932], [-68.774456, -38.680806], [-68.774311, -38.680757], [-68.774163, -38.680714], [-68.774014, -38.680678], [-68.773863, -38.680648], [-68.773711, -38.680626], [-68.773558, -38.680611], [-68.773405, -38.680603], [-68.773251, -38.680602], [-68.773097, -38.680608], [-68.772944, -38.680621], [-68.772792, -38.680642], [-68.772694, -38.680674], [-68.772599, -38.680714], [-68.772507, -38.680759], [-68.772418, -38.680811], [-68.772332, -38.680869], [-68.772251, -38.680932], [-68.772175, -38.681001], [-68.772103, -38.681075], [-68.772036, -38.681153], [-68.771975, -38.681236], [-68.77192, -38.681323], [-68.77187, -38.681413], [-68.771827, -38.681507], [-68.771791, -38.681603], [-68.771761, -38.681702], [-68.771738, -38.681802], [-68.771721, -38.681904], [-68.771712, -38.682006], [-68.77171, -38.682109], [-68.771714, -38.682212], [-68.771726, -38.682314], [-68.771744, -38.682416], [-68.77177, -38.682515], [-68.771802, -38.682613], [-68.771841, -38.682709], [-68.777519, -38.694282], [-68.777552, -38.694401], [-68.777592, -38.694517], [-68.777638, -38.694631], [-68.77769, -38.694742], [-68.777749, -38.694851], [-68.777813, -38.694955], [-68.777884, -38.695056], [-68.77796, -38.695153], [-68.778041, -38.695245], [-68.778127, -38.695333], [-68.778218, -38.695416], [-68.778314, -38.695493], [-68.778413, -38.695565], [-68.778517, -38.695632], [-68.778624, -38.695692], [-68.778734, -38.695747], [-68.778848, -38.695795], [-68.778963, -38.695837], [-68.779081, -38.695872], [-68.779201, -38.6959], [-68.779322, -38.695922], [-68.779444, -38.695937], [-68.779567, -38.695945], [-68.77969, -38.695946], [-68.779813, -38.695941], [-68.779935, -38.695928], [-68.780057, -38.695909], [-68.780177, -38.695883], [-68.780295, -38.69585], [-68.780412, -38.69581], [-68.780526, -38.695764], [-68.780637, -38.695712], [-68.780746, -38.695654], [-68.780851, -38.695589], [-68.780952, -38.695519], [-68.781049, -38.695444], [-68.781141, -38.695363], [-68.781229, -38.695277], [-68.781312, -38.695186], [-68.78139, -38.695091], [-68.781462, -38.694991], [-68.781529, -38.694888], [-68.78159, -38.694781], [-68.781726, -38.694264], [-68.781855, -38.693746], [-68.781978, -38.693226], [-68.782094, -38.692704], [-68.782204, -38.692181], [-68.782307, -38.691657], [-68.782404, -38.691132], [-68.782494, -38.690605], [-68.782577, -38.690077], [-68.782654, -38.689549], [-68.782724, -38.689019]]]]}, "properties": {"areayacimiento": "SIERRA BARROSA ESTE", "yacimiento": "SIERRA BARROSA"}}, {"type": "Feature", "geometry": {"type": "MultiPolygon", "coordinates": [[[[-68.469711, -38.873314], [-68.342466, -38.872667], [-68.328116, -38.841319], [-68.371525, -38.841561], [-68.41312, -38.821474], [-68.437174, -38.821592], [-68.428365, -38.840286], [-68.469898, -38.848129], [-68.469711, -38.873314], [-68.469711, -38.873314]]]]}, "properties": {"areayacimiento": "AGUA DEL CAJON", "yacimiento": "AGUA DEL CAJON"}}, {"type": "Feature", "geometry": {"type": "MultiPolygon", "coordinates": [[[[-68.509047, -38.927221], [-68.509047, -38.927221], [-68.509285, -38.892695], [-68.474938, -38.892554], [-68.47491, -38.896365], [-68.346506, -38.895717], [-68.346449, -38.901896], [-68.299811, -38.901625], [-68.242124, -38.934386], [-68.337727, -38.934932], [-68.361447, -38.94436], [-68.390729, -38.930059], [-68.413735, -38.930177], [-68.413689, -38.935717], [-68.509047, -38.927221]]]]}, "properties": {"areayacimiento": "EL SALITRAL", "yacimiento": "EL SALITRAL"}}, {"type": "Feature", "geometry": {"type": "MultiPolygon", "coordinates": [[[[-70.825959, -51.038805], [-70.817028, -51.039539], [-70.820738, -51.042623], [-70.82749, -51.041754], [-70.825959, -51.038805]]]]}, "properties": {"areayacimiento": "LA ESPERANZA OESTE", "yacimiento": "LA ESPERANZA"}}, {"type": "Feature", "geometry": {"type": "MultiPolygon", "coordinates": [[[[-68.987801, -38.516423], [-68.987682, -38.621811], [-69.104755, -38.621727], [-69.104612, -38.602007], [-69.067863, -38.601843], [-69.067816, -38.57316], [-69.032952, -38.573115], [-69.032926, -38.538975], [-69.014182, -38.538823], [-69.014055, -38.516501], [-68.987801, -38.516423]]], [[[-68.981322, -38.480868], [-68.98129, -38.491958], [-69.00962, -38.491801], [-69.009423, -38.506378], [-69.030447, -38.506367], [-69.030452, -38.513828], [-69.038862, -38.513826], [-69.039164, -38.514129], [-69.040562, -38.515284], [-69.043177, -38.518407], [-69.045394, -38.521425], [-69.047477, -38.525695], [-69.047709, -38.528096], [-69.049255, -38.53063], [-69.048756, -38.534031], [-69.050984, -38.537446], [-69.053248, -38.539309], [-69.056548, -38.540627], [-69.058112, -38.541682], [-69.058732, -38.542452], [-69.060132, -38.546531], [-69.061602, -38.547924], [-69.064448, -38.548117], [-69.066385, -38.550194], [-69.067635, -38.55113], [-69.070043, -38.553664], [-69.074214, -38.559731], [-69.076971, -38.561045], [-69.079011, -38.562543], [-69.082992, -38.565875], [-69.087288, -38.567412], [-69.088823, -38.569051], [-69.089158, -38.571283], [-69.091488, -38.572594], [-69.093815, -38.574101], [-69.095887, -38.575019], [-69.096744, -38.575665], [-69.09695, -38.57605], [-69.097921, -38.57718], [-69.101813, -38.577911], [-69.105737, -38.578943], [-69.108189, -38.579179], [-69.111224, -38.580628], [-69.113384, -38.582027], [-69.11676, -38.585928], [-69.123356, -38.590139], [-69.135726, -38.599674], [-69.138198, -38.600836], [-69.141095, -38.601084], [-69.147806, -38.60451], [-69.150857, -38.604598], [-69.153082, -38.605484], [-69.154718, -38.605492], [-69.15607, -38.606566], [-69.156782, -38.606015], [-69.158812, -38.606148], [-69.16073, -38.60651], [-69.163826, -38.607641], [-69.167149, -38.608379], [-69.169304, -38.608259], [-69.170998, -38.605878], [-69.171622, -38.605305], [-69.174958, -38.60458], [-69.17784, -38.604787], [-69.178771, -38.604975], [-69.180252, -38.605342], [-69.18128, -38.60553], [-69.183527, -38.605395], [-69.186488, -38.606152], [-69.188958, -38.607576], [-69.19157, -38.608995], [-69.193061, -38.610515], [-69.193886, -38.61091], [-69.194878, -38.61153], [-69.195502, -38.611993], [-69.196074, -38.612357], [-69.198599, -38.614082], [-69.200923, -38.614605], [-69.203345, -38.615344], [-69.204446, -38.616189], [-69.205803, -38.617803], [-69.206784, -38.618666], [-69.20835, -38.619965], [-69.21111, -38.62046], [-69.215099, -38.621016], [-69.216974, -38.621686], [-69.231229, -38.621658], [-69.230802, -38.515299], [-69.056574, -38.515465], [-69.056535, -38.444667], [-68.964912, -38.444679], [-68.964895, -38.480833], [-68.981322, -38.480868]]]]}, "properties": {"areayacimiento": "FORTIN DE PIEDRA", "yacimiento": "FORTIN DE PIEDRA"}}, {"type": "Feature", "geometry": {"type": "MultiPolygon", "coordinates": [[[[-68.6741, -38.848182], [-68.609658, -38.847871], [-68.609648, -38.853273], [-68.610043, -38.855057], [-68.620239, -38.860945], [-68.61509, -38.865327], [-68.60944, -38.863072], [-68.605327, -38.869016], [-68.614007, -38.872657], [-68.62441, -38.863363], [-68.628496, -38.865712], [-68.662889, -38.865719], [-68.662985, -38.856008], [-68.674212, -38.856079], [-68.6741, -38.848182]]]]}, "properties": {"areayacimiento": "LAS CHIVAS NC", "yacimiento": "LAS CHIVAS NC"}}, {"type": "Feature", "geometry": {"type": "MultiPolygon", "coordinates": [[[[-69.103218, -38.862261], [-69.103551, -38.862451], [-69.103931, -38.862594], [-69.104169, -38.862642], [-69.104455, -38.862689], [-69.104645, -38.862689], [-69.105073, -38.862642], [-69.105216, -38.862546], [-69.10593, -38.861752], [-69.106227, -38.860772], [-69.106447, -38.859168], [-69.106733, -38.85774], [-69.10778, -38.856217], [-69.109017, -38.855265], [-69.11073, -38.854409], [-69.112443, -38.853933], [-69.115013, -38.853838], [-69.117202, -38.854218], [-69.118535, -38.854885], [-69.121485, -38.854885], [-69.123675, -38.854504], [-69.125102, -38.854028], [-69.127101, -38.853838], [-69.127672, -38.854028], [-69.129195, -38.854409], [-69.130242, -38.854409], [-69.131289, -38.854028], [-69.131955, -38.853742], [-69.133002, -38.853457], [-69.134525, -38.853171], [-69.135381, -38.852886], [-69.135953, -38.852791], [-69.136809, -38.85241], [-69.137095, -38.85241], [-69.138427, -38.851744], [-69.140045, -38.851268], [-69.141568, -38.851268], [-69.142615, -38.851268], [-69.143567, -38.851268], [-69.144423, -38.851268], [-69.145851, -38.850982], [-69.146613, -38.850411], [-69.147659, -38.850221], [-69.148611, -38.850316], [-69.149373, -38.850697], [-69.150039, -38.851077], [-69.151752, -38.851173], [-69.153326, -38.852014], [-69.154906, -38.852839], [-69.15562, -38.852767], [-69.156263, -38.852625], [-69.156691, -38.852482], [-69.156977, -38.852054], [-69.156905, -38.851625], [-69.156402, -38.850987], [-69.155049, -38.84927], [-69.154335, -38.848841], [-69.153764, -38.848056], [-69.153978, -38.847271], [-69.154978, -38.846486], [-69.155834, -38.846129], [-69.156905, -38.845772], [-69.158618, -38.845272], [-69.159475, -38.845129], [-69.160831, -38.844987], [-69.161973, -38.844487], [-69.162901, -38.843987], [-69.163615, -38.843773], [-69.164543, -38.843844], [-69.165328, -38.844059], [-69.166114, -38.84413], [-69.166613, -38.844273], [-69.167327, -38.843773], [-69.167827, -38.843345], [-69.168041, -38.842916], [-69.168612, -38.842488], [-69.16904, -38.842274], [-69.169683, -38.84206], [-69.170611, -38.84206], [-69.171959, -38.842422], [-69.173966, -38.842631], [-69.174608, -38.842417], [-69.175251, -38.841988], [-69.175608, -38.84156], [-69.176036, -38.840918], [-69.17625, -38.840418], [-69.176179, -38.839419], [-69.176036, -38.839133], [-69.175418, -38.838192], [-69.174751, -38.837306], [-69.174537, -38.835949], [-69.174537, -38.835021], [-69.174323, -38.833879], [-69.174394, -38.832523], [-69.174466, -38.831024], [-69.174894, -38.829668], [-69.175394, -38.828383], [-69.176393, -38.827312], [-69.178035, -38.82617], [-69.179962, -38.824813], [-69.181318, -38.824028], [-69.182532, -38.823457], [-69.184364, -38.822607], [-69.185387, -38.822386], [-69.185958, -38.822101], [-69.186672, -38.821244], [-69.186886, -38.820602], [-69.186815, -38.819388], [-69.186387, -38.81896], [-69.185459, -38.81846], [-69.184602, -38.81846], [-69.183817, -38.818674], [-69.181741, -38.819752], [-69.17932, -38.821102], [-69.177392, -38.822386], [-69.175465, -38.824028], [-69.173038, -38.826241], [-69.17054, -38.828026], [-69.167898, -38.829311], [-69.165186, -38.830524], [-69.163687, -38.831095], [-69.162559, -38.831666], [-69.161916, -38.832237], [-69.161417, -38.833522], [-69.161345, -38.835093], [-69.161274, -38.836449], [-69.16106, -38.837591], [-69.160631, -38.838876], [-69.159989, -38.83959], [-69.159132, -38.839875], [-69.157419, -38.83959], [-69.15435, -38.839019], [-69.152708, -38.837877], [-69.15128, -38.836806], [-69.14921, -38.83495], [-69.147854, -38.834165], [-69.144998, -38.833736], [-69.142857, -38.833736], [-69.141001, -38.833594], [-69.139859, -38.83338], [-69.138502, -38.83288], [-69.136646, -38.832666], [-69.134648, -38.832666], [-69.132578, -38.832095], [-69.131079, -38.831738], [-69.128073, -38.830667], [-69.126503, -38.830524], [-69.124147, -38.830096], [-69.121649, -38.829739], [-69.119079, -38.829239], [-69.116866, -38.827669], [-69.115224, -38.825456], [-69.114225, -38.822529], [-69.113368, -38.82103], [-69.112369, -38.819888], [-69.110441, -38.817818], [-69.109728, -38.817175], [-69.105423, -38.813969], [-69.103089, -38.812179], [-69.101875, -38.812036], [-69.100733, -38.812036], [-69.099591, -38.81225], [-69.097807, -38.813178], [-69.09645, -38.814106], [-69.094357, -38.815124], [-69.094336, -38.815286], [-69.092943, -38.816316], [-69.091611, -38.817696], [-69.090564, -38.8186], [-69.089421, -38.820409], [-69.089184, -38.821694], [-69.089326, -38.822741], [-69.089564, -38.823407], [-69.089993, -38.824073], [-69.090611, -38.824739], [-69.09104, -38.825025], [-69.09142, -38.825263], [-69.092627, -38.825342], [-69.0938, -38.825358], [-69.094371, -38.825311], [-69.095132, -38.825263], [-69.095846, -38.824977], [-69.096465, -38.824502], [-69.097036, -38.823883], [-69.097321, -38.823693], [-69.097797, -38.823359], [-69.098178, -38.823121], [-69.098368, -38.822883], [-69.099225, -38.822122], [-69.100367, -38.821932], [-69.101176, -38.821551], [-69.101557, -38.821408], [-69.102033, -38.820885], [-69.10208, -38.820647], [-69.102366, -38.820266], [-69.102842, -38.820028], [-69.103619, -38.819013], [-69.103643, -38.818936], [-69.103673, -38.818862], [-69.10371, -38.818791], [-69.103754, -38.818723], [-69.103802, -38.818659], [-69.103857, -38.8186], [-69.103916, -38.818546], [-69.103979, -38.818497], [-69.104047, -38.818454], [-69.104118, -38.818417], [-69.104193, -38.818387], [-69.104269, -38.818363], [-69.104347, -38.818345], [-69.104427, -38.818335], [-69.104507, -38.818332], [-69.104587, -38.818335], [-69.104666, -38.818346], [-69.104744, -38.818363], [-69.104821, -38.818387], [-69.104894, -38.818418], [-69.104965, -38.818455], [-69.105033, -38.818498], [-69.105096, -38.818547], [-69.105155, -38.818601], [-69.105209, -38.81866], [-69.105257, -38.818723], [-69.1053, -38.818791], [-69.105337, -38.818862], [-69.105368, -38.818935], [-69.105392, -38.819012], [-69.105409, -38.81909], [-69.10542, -38.819168], [-69.105423, -38.819248], [-69.10542, -38.819327], [-69.10541, -38.819406], [-69.105393, -38.819483], [-69.105369, -38.819559], [-69.105339, -38.819632], [-69.105303, -38.819703], [-69.105261, -38.81977], [-69.105214, -38.819833], [-69.105161, -38.819892], [-69.105103, -38.819946], [-69.105041, -38.819995], [-69.104626, -38.820533], [-69.104269, -38.821782], [-69.10415, -38.822912], [-69.10415, -38.824637], [-69.104091, -38.825708], [-69.103734, -38.82666], [-69.103258, -38.827671], [-69.10183, -38.82898], [-69.101057, -38.829872], [-69.099986, -38.83124], [-69.099213, -38.832965], [-69.098559, -38.834393], [-69.098321, -38.835345], [-69.098321, -38.835821], [-69.09844, -38.836713], [-69.098916, -38.837724], [-69.099332, -38.8382], [-69.100224, -38.838795], [-69.102068, -38.839509], [-69.103674, -38.840044], [-69.10534, -38.840461], [-69.106589, -38.84058], [-69.107957, -38.84052], [-69.108969, -38.840342], [-69.110515, -38.840163], [-69.112478, -38.840044], [-69.113906, -38.840044], [-69.115274, -38.840104], [-69.117633, -38.840386], [-69.119379, -38.841174], [-69.119676, -38.841531], [-69.119676, -38.842305], [-69.119379, -38.842781], [-69.119081, -38.842959], [-69.118665, -38.8429], [-69.117961, -38.84242], [-69.117356, -38.842007], [-69.115988, -38.84171], [-69.114977, -38.84165], [-69.113371, -38.841591], [-69.112776, -38.84165], [-69.110872, -38.842067], [-69.109742, -38.842959], [-69.10879, -38.844625], [-69.108612, -38.845636], [-69.108195, -38.846588], [-69.107363, -38.847361], [-69.107244, -38.847837], [-69.107182, -38.848916], [-69.107282, -38.849598], [-69.107192, -38.849925], [-69.106717, -38.850163], [-69.106181, -38.849955], [-69.10563, -38.849799], [-69.105021, -38.849627], [-69.104188, -38.849657], [-69.103356, -38.849925], [-69.102404, -38.849955], [-69.101809, -38.850014], [-69.100827, -38.85049], [-69.100189, -38.850787], [-69.100159, -38.850936], [-69.099802, -38.851442], [-69.099713, -38.851799], [-69.099415, -38.852156], [-69.099088, -38.852483], [-69.098731, -38.852632], [-69.098463, -38.85275], [-69.098047, -38.852988], [-69.09766, -38.853554], [-69.096657, -38.854498], [-69.095572, -38.855066], [-69.095573, -38.855171], [-69.095568, -38.855276], [-69.095556, -38.85538], [-69.095538, -38.855483], [-69.095512, -38.855584], [-69.095481, -38.855684], [-69.095443, -38.855782], [-69.095398, -38.855877], [-69.095348, -38.855969], [-69.095292, -38.856057], [-69.09523, -38.856142], [-69.095163, -38.856222], [-69.095091, -38.856298], [-69.095014, -38.856369], [-69.094932, -38.856436], [-69.094845, -38.856497], [-69.094755, -38.856553], [-69.094661, -38.856602], [-69.094564, -38.856646], [-69.094464, -38.856682], [-69.094363, -38.856713], [-69.094259, -38.856736], [-69.094154, -38.856753], [-69.094049, -38.856763], [-69.093942, -38.856766], [-69.093836, -38.856762], [-69.093786, -38.856757], [-69.093686, -38.856744], [-69.093588, -38.856725], [-69.093491, -38.856699], [-69.093396, -38.856668], [-69.093303, -38.85663], [-69.093212, -38.856587], [-69.093124, -38.856539], [-69.093039, -38.856485], [-69.092958, -38.856426], [-69.092102, -38.855798], [-69.090788, -38.854999], [-69.090274, -38.854713], [-69.090207, -38.854678], [-69.090142, -38.854639], [-69.090081, -38.854594], [-69.090024, -38.854545], [-69.08997, -38.854491], [-69.089921, -38.854434], [-69.089876, -38.854373], [-69.089837, -38.854308], [-69.089802, -38.854241], [-69.089772, -38.854168], [-69.089747, -38.854093], [-69.089729, -38.854016], [-69.089717, -38.853938], [-69.089712, -38.853859], [-69.088512, -38.854599], [-69.088132, -38.854885], [-69.087418, -38.855646], [-69.087275, -38.855836], [-69.086443, -38.856174], [-69.086361, -38.856586], [-69.085276, -38.857074], [-69.084896, -38.857692], [-69.084848, -38.858263], [-69.084896, -38.858882], [-69.085134, -38.859215], [-69.085562, -38.85931], [-69.086561, -38.859263], [-69.086894, -38.859072], [-69.087795, -38.858643], [-69.088893, -38.858121], [-69.089893, -38.857835], [-69.090559, -38.857788], [-69.091844, -38.857883], [-69.092462, -38.858073], [-69.095175, -38.858454], [-69.096412, -38.858549], [-69.097888, -38.858835], [-69.099458, -38.859548], [-69.100315, -38.859929], [-69.101219, -38.8605], [-69.101552, -38.860786], [-69.10236, -38.861455], [-69.102838, -38.86185], [-69.103218, -38.862261]]]]}, "properties": {"areayacimiento": "BARDA GONZALEZ", "yacimiento": "BARDA GONZALEZ"}}, {"type": "Feature", "geometry": {"type": "MultiPolygon", "coordinates": [[[[-69.104507, -38.818332], [-69.104427, -38.818335], [-69.104347, -38.818345], [-69.104269, -38.818363], [-69.104193, -38.818387], [-69.104118, -38.818417], [-69.104047, -38.818454], [-69.103979, -38.818497], [-69.103916, -38.818546], [-69.103857, -38.8186], [-69.103802, -38.818659], [-69.103754, -38.818723], [-69.10371, -38.818791], [-69.103673, -38.818862], [-69.103643, -38.818936], [-69.103619, -38.819013], [-69.102842, -38.820028], [-69.102366, -38.820266], [-69.10208, -38.820647], [-69.102033, -38.820885], [-69.101557, -38.821408], [-69.101176, -38.821551], [-69.100367, -38.821932], [-69.099225, -38.822122], [-69.098368, -38.822883], [-69.098178, -38.823121], [-69.097797, -38.823359], [-69.097321, -38.823693], [-69.097036, -38.823883], [-69.096465, -38.824502], [-69.095846, -38.824977], [-69.095132, -38.825263], [-69.094371, -38.825311], [-69.0938, -38.825358], [-69.092627, -38.825342], [-69.09142, -38.825263], [-69.09104, -38.825025], [-69.090611, -38.824739], [-69.089993, -38.824073], [-69.089564, -38.823407], [-69.089326, -38.822741], [-69.089184, -38.821694], [-69.089421, -38.820409], [-69.090564, -38.8186], [-69.091611, -38.817696], [-69.092943, -38.816316], [-69.094336, -38.815286], [-69.094418, -38.814651], [-69.094323, -38.814317], [-69.0938, -38.814079], [-69.093229, -38.814175], [-69.092372, -38.814555], [-69.091182, -38.814984], [-69.089612, -38.81546], [-69.088327, -38.815793], [-69.087185, -38.816269], [-69.08609, -38.816887], [-69.085614, -38.817601], [-69.085855, -38.818171], [-69.086614, -38.819038], [-69.086842, -38.819552], [-69.087013, -38.820637], [-69.086956, -38.821836], [-69.086842, -38.822522], [-69.0861, -38.824007], [-69.085129, -38.825377], [-69.084158, -38.825834], [-69.082159, -38.826005], [-69.080332, -38.826119], [-69.079361, -38.826405], [-69.077762, -38.826976], [-69.076677, -38.827147], [-69.075515, -38.827248], [-69.07405, -38.827376], [-69.07365, -38.82749], [-69.072794, -38.827947], [-69.072166, -38.82829], [-69.071366, -38.828804], [-69.070795, -38.829432], [-69.070281, -38.830403], [-69.07011, -38.831259], [-69.070053, -38.832059], [-69.070224, -38.833087], [-69.07109, -38.834514], [-69.071043, -38.837761], [-69.069824, -38.839597], [-69.069539, -38.84051], [-69.069482, -38.841082], [-69.069367, -38.841596], [-69.069881, -38.841995], [-69.070852, -38.842109], [-69.071841, -38.841886], [-69.072851, -38.840967], [-69.074336, -38.840396], [-69.075192, -38.840225], [-69.076905, -38.840625], [-69.078904, -38.841938], [-69.080103, -38.843594], [-69.080732, -38.844908], [-69.081702, -38.846392], [-69.082845, -38.847249], [-69.083473, -38.847535], [-69.085985, -38.847706], [-69.0881, -38.847912], [-69.088246, -38.847948], [-69.088391, -38.847991], [-69.088533, -38.848041], [-69.088672, -38.848097], [-69.088809, -38.84816], [-69.088942, -38.848229], [-69.089069, -38.848302], [-69.089191, -38.848381], [-69.089311, -38.848465], [-69.089426, -38.848555], [-69.089537, -38.84865], [-69.089643, -38.848749], [-69.089745, -38.848854], [-69.089842, -38.848963], [-69.089934, -38.849077], [-69.09002, -38.849195], [-69.090101, -38.849316], [-69.090176, -38.849441], [-69.090246, -38.849569], [-69.09031, -38.849701], [-69.090365, -38.84983], [-69.090415, -38.849961], [-69.090458, -38.850094], [-69.090496, -38.85023], [-69.090528, -38.850366], [-69.090554, -38.850504], [-69.090586, -38.850652], [-69.090612, -38.850802], [-69.09063, -38.850952], [-69.090642, -38.851103], [-69.090647, -38.851255], [-69.090646, -38.851407], [-69.090637, -38.851558], [-69.090622, -38.851709], [-69.0906, -38.851859], [-69.090571, -38.852008], [-69.090536, -38.852155], [-69.090494, -38.852301], [-69.090445, -38.852444], [-69.09039, -38.852586], [-69.090329, -38.852724], [-69.090261, -38.85286], [-69.090188, -38.852993], [-69.090121, -38.853036], [-69.090058, -38.853085], [-69.089999, -38.853139], [-69.089945, -38.853197], [-69.089896, -38.85326], [-69.089852, -38.853326], [-69.089813, -38.853396], [-69.089781, -38.853469], [-69.089754, -38.853544], [-69.089734, -38.853621], [-69.08972, -38.8537], [-69.089713, -38.853779], [-69.089712, -38.853859], [-69.089717, -38.853938], [-69.089729, -38.854016], [-69.089747, -38.854093], [-69.089772, -38.854168], [-69.089802, -38.854241], [-69.089837, -38.854308], [-69.089876, -38.854373], [-69.089921, -38.854434], [-69.08997, -38.854491], [-69.090024, -38.854545], [-69.090081, -38.854594], [-69.090142, -38.854639], [-69.090207, -38.854678], [-69.090274, -38.854713], [-69.090788, -38.854999], [-69.092102, -38.855798], [-69.092958, -38.856426], [-69.093039, -38.856485], [-69.093124, -38.856539], [-69.093212, -38.856587], [-69.093303, -38.85663], [-69.093396, -38.856668], [-69.093491, -38.856699], [-69.093588, -38.856725], [-69.093686, -38.856744], [-69.093786, -38.856757], [-69.093836, -38.856762], [-69.093942, -38.856766], [-69.094049, -38.856763], [-69.094154, -38.856753], [-69.094259, -38.856736], [-69.094363, -38.856713], [-69.094464, -38.856682], [-69.094564, -38.856646], [-69.094661, -38.856602], [-69.094755, -38.856553], [-69.094845, -38.856497], [-69.094932, -38.856436], [-69.095014, -38.856369], [-69.095091, -38.856298], [-69.095163, -38.856222], [-69.09523, -38.856142], [-69.095292, -38.856057], [-69.095348, -38.855969], [-69.095398, -38.855877], [-69.095443, -38.855782], [-69.095481, -38.855684], [-69.095512, -38.855584], [-69.095538, -38.855483], [-69.095556, -38.85538], [-69.095568, -38.855276], [-69.095573, -38.855171], [-69.095572, -38.855066], [-69.096657, -38.854498], [-69.09766, -38.853554], [-69.098047, -38.852988], [-69.098463, -38.85275], [-69.098731, -38.852632], [-69.099088, -38.852483], [-69.099415, -38.852156], [-69.099713, -38.851799], [-69.099802, -38.851442], [-69.100159, -38.850936], [-69.100189, -38.850787], [-69.100827, -38.85049], [-69.101809, -38.850014], [-69.102404, -38.849955], [-69.103356, -38.849925], [-69.104188, -38.849657], [-69.105021, -38.849627], [-69.10563, -38.849799], [-69.106181, -38.849955], [-69.106717, -38.850163], [-69.107192, -38.849925], [-69.107282, -38.849598], [-69.107182, -38.848916], [-69.107244, -38.847837], [-69.107363, -38.847361], [-69.108195, -38.846588], [-69.108612, -38.845636], [-69.10879, -38.844625], [-69.109742, -38.842959], [-69.110872, -38.842067], [-69.112776, -38.84165], [-69.113371, -38.841591], [-69.114977, -38.84165], [-69.115988, -38.84171], [-69.117356, -38.842007], [-69.117961, -38.84242], [-69.118665, -38.8429], [-69.119081, -38.842959], [-69.119379, -38.842781], [-69.119676, -38.842305], [-69.119676, -38.841531], [-69.119379, -38.841174], [-69.117633, -38.840386], [-69.115274, -38.840104], [-69.113906, -38.840044], [-69.112478, -38.840044], [-69.110515, -38.840163], [-69.108969, -38.840342], [-69.107957, -38.84052], [-69.106589, -38.84058], [-69.10534, -38.840461], [-69.103674, -38.840044], [-69.102068, -38.839509], [-69.100224, -38.838795], [-69.099332, -38.8382], [-69.098916, -38.837724], [-69.09844, -38.836713], [-69.098321, -38.835821], [-69.098321, -38.835345], [-69.098559, -38.834393], [-69.099213, -38.832965], [-69.099986, -38.83124], [-69.101057, -38.829872], [-69.10183, -38.82898], [-69.103258, -38.827671], [-69.103734, -38.82666], [-69.104091, -38.825708], [-69.10415, -38.824637], [-69.10415, -38.822912], [-69.104269, -38.821782], [-69.104626, -38.820533], [-69.105041, -38.819995], [-69.105103, -38.819946], [-69.105161, -38.819892], [-69.105214, -38.819833], [-69.105261, -38.81977], [-69.105303, -38.819703], [-69.105339, -38.819632], [-69.105369, -38.819559], [-69.105393, -38.819483], [-69.10541, -38.819406], [-69.10542, -38.819327], [-69.105423, -38.819248], [-69.10542, -38.819168], [-69.105409, -38.81909], [-69.105392, -38.819012], [-69.105368, -38.818935], [-69.105337, -38.818862], [-69.1053, -38.818791], [-69.105257, -38.818723], [-69.105209, -38.81866], [-69.105155, -38.818601], [-69.105096, -38.818547], [-69.105033, -38.818498], [-69.104965, -38.818455], [-69.104894, -38.818418], [-69.104821, -38.818387], [-69.104744, -38.818363], [-69.104666, -38.818346], [-69.104587, -38.818335], [-69.104507, -38.818332]]]]}, "properties": {"areayacimiento": "BAJO BARDA GONZALEZ", "yacimiento": "BARDA GONZALEZ"}}, {"type": "Feature", "geometry": {"type": "MultiPolygon", "coordinates": [[[[-69.408591, -37.53661], [-69.408989, -37.609355], [-69.378727, -37.609455], [-69.37888, -37.63952], [-69.350521, -37.639608], [-69.350697, -37.676836], [-69.40702, -37.676474], [-69.407197, -37.711878], [-69.509603, -37.71148], [-69.508528, -37.545775], [-69.526684, -37.545645], [-69.52656, -37.533406], [-69.461531, -37.533871], [-69.45968, -37.533911], [-69.459697, -37.536422], [-69.408591, -37.53661]], [[-69.425475, -37.549991], [-69.425569, -37.566473], [-69.419864, -37.566494], [-69.419772, -37.550011], [-69.425475, -37.549991]], [[-69.458065, -37.636171], [-69.458165, -37.652398], [-69.455198, -37.652409], [-69.455099, -37.636183], [-69.458065, -37.636171]], [[-69.384915, -37.657239], [-69.385001, -37.673835], [-69.380829, -37.673849], [-69.380744, -37.657252], [-69.384915, -37.657239]]]]}, "properties": {"areayacimiento": "CERRO LAS NI\u00d1AS", "yacimiento": "CERRO LAS NI\u00d1AS"}}, {"type": "Feature", "geometry": {"type": "MultiPolygon", "coordinates": [[[[-68.143338, -38.190172], [-68.143095, -38.171473], [-68.143391, -38.161984], [-68.143961, -38.153206], [-68.143584, -38.140994], [-68.119667, -38.136814], [-68.110388, -38.140514], [-68.085099, -38.164604], [-68.06597, -38.210451], [-68.035927, -38.230967], [-68.039494, -38.244107], [-68.05883, -38.25945], [-68.079412, -38.275565], [-68.153362, -38.28082], [-68.177728, -38.258814], [-68.14068, -38.216047], [-68.144908, -38.209741], [-68.144252, -38.200452], [-68.143338, -38.190172]]]]}, "properties": {"areayacimiento": "CHARCO BAYO", "yacimiento": "CHARCO BAYO"}}, {"type": "Feature", "geometry": {"type": "MultiPolygon", "coordinates": [[[[-68.450349, -37.879025], [-68.440352, -37.872373], [-68.413365, -37.876321], [-68.398294, -37.902646], [-68.404236, -37.914348], [-68.421624, -37.924029], [-68.420966, -37.938324], [-68.429838, -37.964591], [-68.444279, -37.965482], [-68.455398, -37.95802], [-68.460678, -37.946354], [-68.470349, -37.936714], [-68.471047, -37.930713], [-68.449184, -37.912563], [-68.451885, -37.897171], [-68.450349, -37.879025]]]]}, "properties": {"areayacimiento": "EL CARACOL", "yacimiento": "EL CARACOL"}}, {"type": "Feature", "geometry": {"type": "MultiPolygon", "coordinates": [[[[-68.522226, -38.086661], [-68.51034, -38.101389], [-68.508347, -38.102223], [-68.507205, -38.103222], [-68.506562, -38.104793], [-68.50592, -38.106435], [-68.505563, -38.107505], [-68.505239, -38.109693], [-68.50492, -38.111075], [-68.505134, -38.111217], [-68.505491, -38.11136], [-68.506277, -38.11136], [-68.506807, -38.110852], [-68.508535, -38.108833], [-68.520796, -38.102158], [-68.52417, -38.102634], [-68.525366, -38.101886], [-68.525965, -38.100839], [-68.525815, -38.099642], [-68.524477, -38.09755], [-68.528371, -38.082733], [-68.53019, -38.081308], [-68.531047, -38.079023], [-68.531047, -38.078309], [-68.530404, -38.07781], [-68.529405, -38.077596], [-68.528383, -38.078058], [-68.526264, -38.080094], [-68.524765, -38.08195], [-68.52298, -38.084234], [-68.522226, -38.086661]]]]}, "properties": {"areayacimiento": "LOMA COLORADA", "yacimiento": "LOMA COLORADA"}}, {"type": "Feature", "geometry": {"type": "MultiPolygon", "coordinates": [[[[-68.086428, -45.810195], [-68.08632, -45.810204], [-68.086203, -45.810209], [-68.086076, -45.810212], [-68.085938, -45.81021], [-68.085792, -45.810206], [-68.085627, -45.810198], [-68.084974, -45.810157], [-68.084702, -45.810144], [-68.084558, -45.810141], [-68.084428, -45.81014], [-68.084308, -45.810143], [-68.084198, -45.81015], [-68.084071, -45.810163], [-68.084013, -45.810171], [-68.083957, -45.810181], [-68.083905, -45.810192], [-68.083855, -45.810205], [-68.083808, -45.810219], [-68.083764, -45.810235], [-68.083723, -45.810252], [-68.083684, -45.810271], [-68.083648, -45.810292], [-68.083615, -45.810313], [-68.083584, -45.810337], [-68.083556, -45.810362], [-68.083531, -45.810388], [-68.083508, -45.810417], [-68.083481, -45.810457], [-68.083457, -45.810503], [-68.083435, -45.810555], [-68.083415, -45.810612], [-68.08339, -45.810708], [-68.08334, -45.810953], [-68.083312, -45.811062], [-68.083109, -45.811757], [-68.082912, -45.812454], [-68.082721, -45.813153], [-68.082538, -45.813855], [-68.082361, -45.814558], [-68.082192, -45.815264], [-68.082029, -45.815972], [-68.081873, -45.816681], [-68.081723, -45.817392], [-68.081581, -45.818106], [-68.081446, -45.81882], [-68.081317, -45.819537], [-68.081195, -45.820255], [-68.08108, -45.820975], [-68.080973, -45.821696], [-68.080872, -45.822419], [-68.080778, -45.823143], [-68.080691, -45.823869], [-68.080611, -45.824596], [-68.080537, -45.825323], [-68.080471, -45.826053], [-68.080412, -45.826783], [-68.08036, -45.827514], [-68.080315, -45.828246], [-68.080276, -45.828979], [-68.080245, -45.829713], [-68.080221, -45.830447], [-68.080204, -45.831183], [-68.080193, -45.831918], [-68.08019, -45.832655], [-68.080194, -45.833392], [-68.080205, -45.834129], [-68.080223, -45.834867], [-68.080247, -45.835605], [-68.080279, -45.836343], [-68.080318, -45.837082], [-68.080364, -45.83782], [-68.080417, -45.838559], [-68.080477, -45.839297], [-68.080543, -45.840036], [-68.080617, -45.840774], [-68.080698, -45.841512], [-68.080786, -45.842249], [-68.08088, -45.842986], [-68.080982, -45.843723], [-68.08109, -45.844459], [-68.081206, -45.845194], [-68.081328, -45.845929], [-68.081458, -45.846662], [-68.081594, -45.847395], [-68.081737, -45.848128], [-68.081887, -45.848859], [-68.082044, -45.849589], [-68.082207, -45.850318], [-68.082378, -45.851045], [-68.082555, -45.851772], [-68.082739, -45.852497], [-68.08293, -45.85322], [-68.083127, -45.853943], [-68.083332, -45.854663], [-68.083543, -45.855382], [-68.08376, -45.856099], [-68.083985, -45.856815], [-68.084216, -45.857529], [-68.084256, -45.857655], [-68.084295, -45.857789], [-68.084333, -45.85793], [-68.084371, -45.858083], [-68.084436, -45.858366], [-68.084581, -45.859033], [-68.084658, -45.859356], [-68.084698, -45.859506], [-68.084738, -45.859647], [-68.084779, -45.85978], [-68.084822, -45.859906], [-68.084885, -45.860073], [-68.084951, -45.86023], [-68.085022, -45.86038], [-68.085098, -45.860523], [-68.085179, -45.860659], [-68.085265, -45.860789], [-68.085357, -45.860914], [-68.085455, -45.861033], [-68.085573, -45.861166], [-68.085697, -45.861298], [-68.085826, -45.861429], [-68.085959, -45.861558], [-68.086095, -45.861683], [-68.086233, -45.861805], [-68.086374, -45.861922], [-68.086516, -45.862035], [-68.086658, -45.862142], [-68.086801, -45.862244], [-68.086944, -45.862341], [-68.087087, -45.862431], [-68.087229, -45.862516], [-68.08737, -45.862595], [-68.087511, -45.862667], [-68.08765, -45.862733], [-68.087749, -45.862775], [-68.087851, -45.862814], [-68.087955, -45.86285], [-68.088063, -45.862882], [-68.088174, -45.862911], [-68.088288, -45.862937], [-68.088405, -45.862959], [-68.088526, -45.862979], [-68.08865, -45.862995], [-68.088777, -45.863008], [-68.088908, -45.863018], [-68.089043, -45.863024], [-68.089182, -45.863028], [-68.089325, -45.863028], [-68.089473, -45.863025], [-68.089626, -45.863019], [-68.089752, -45.863012], [-68.089882, -45.863003], [-68.090154, -45.862978], [-68.090445, -45.862945], [-68.090759, -45.862902], [-68.091041, -45.86286], [-68.091357, -45.862809], [-68.092457, -45.862619], [-68.092887, -45.862548], [-68.093111, -45.862513], [-68.09332, -45.862482], [-68.093518, -45.862456], [-68.093707, -45.862432], [-68.09392, -45.862409], [-68.094123, -45.86239], [-68.094319, -45.862375], [-68.094508, -45.862364], [-68.09469, -45.862358], [-68.094867, -45.862355], [-68.095039, -45.862357], [-68.095205, -45.862362], [-68.095445, -45.862375], [-68.095689, -45.86239], [-68.095938, -45.862408], [-68.096192, -45.862428], [-68.096453, -45.862451], [-68.09672, -45.862477], [-68.096995, -45.862506], [-68.09728, -45.862537], [-68.097838, -45.862605], [-68.098457, -45.862685], [-68.099092, -45.862773], [-68.100351, -45.862952], [-68.103845, -45.86353], [-68.105341, -45.863813], [-68.107166, -45.864166], [-68.108714, -45.864461], [-68.110291, -45.864763], [-68.111381, -45.864978], [-68.112816, -45.86528], [-68.113782, -45.8655], [-68.11404, -45.865559], [-68.114312, -45.865618], [-68.114604, -45.865679], [-68.114919, -45.865741], [-68.11552, -45.865854], [-68.116628, -45.866054], [-68.117061, -45.866134], [-68.117498, -45.866217], [-68.117888, -45.866295], [-68.118309, -45.866385], [-68.118697, -45.866475], [-68.119059, -45.866565], [-68.119231, -45.866611], [-68.119398, -45.866657], [-68.119602, -45.866717], [-68.119798, -45.866778], [-68.119988, -45.86684], [-68.12017, -45.866904], [-68.120345, -45.866969], [-68.120515, -45.867036], [-68.120677, -45.867105], [-68.120834, -45.867175], [-68.120985, -45.867247], [-68.12113, -45.867321], [-68.12127, -45.867397], [-68.121403, -45.867474], [-68.121531, -45.867554], [-68.121654, -45.867636], [-68.121771, -45.86772], [-68.121882, -45.867806], [-68.121977, -45.867883], [-68.122071, -45.867964], [-68.122163, -45.868047], [-68.122255, -45.868132], [-68.122346, -45.868221], [-68.122436, -45.868312], [-68.122525, -45.868406], [-68.122613, -45.868503], [-68.1227, -45.868602], [-68.122786, -45.868703], [-68.12287, -45.868807], [-68.122953, -45.868913], [-68.123034, -45.869021], [-68.123114, -45.869131], [-68.123192, -45.869243], [-68.123268, -45.869357], [-68.123343, -45.869473], [-68.123416, -45.869591], [-68.123487, -45.86971], [-68.123556, -45.869831], [-68.123623, -45.869952], [-68.123687, -45.870074], [-68.123749, -45.870197], [-68.123809, -45.870321], [-68.123866, -45.870444], [-68.12392, -45.870568], [-68.123971, -45.870692], [-68.12402, -45.870815], [-68.124065, -45.870938], [-68.124108, -45.87106], [-68.124147, -45.871181], [-68.124183, -45.871301], [-68.124208, -45.871401], [-68.124226, -45.871505], [-68.124236, -45.871611], [-68.124239, -45.87172], [-68.124234, -45.871832], [-68.124222, -45.871947], [-68.124203, -45.872065], [-68.124176, -45.872186], [-68.124142, -45.872311], [-68.1241, -45.872438], [-68.124051, -45.872569], [-68.123994, -45.872703], [-68.12393, -45.872841], [-68.123858, -45.872982], [-68.123779, -45.873128], [-68.123691, -45.873277], [-68.123613, -45.873405], [-68.123529, -45.873535], [-68.123439, -45.873669], [-68.123343, -45.873807], [-68.123241, -45.873949], [-68.123133, -45.874096], [-68.123017, -45.874248], [-68.122894, -45.874406], [-68.122674, -45.874681], [-68.122421, -45.874986], [-68.122174, -45.875279], [-68.121602, -45.875952], [-68.121331, -45.876275], [-68.121083, -45.87658], [-68.120875, -45.876849], [-68.120771, -45.876989], [-68.120676, -45.877121], [-68.120589, -45.877248], [-68.120511, -45.877369], [-68.12044, -45.877484], [-68.120376, -45.877595], [-68.12032, -45.877701], [-68.120271, -45.877803], [-68.120222, -45.877918], [-68.120183, -45.878027], [-68.120153, -45.878131], [-68.120133, -45.87823], [-68.120122, -45.878324], [-68.120121, -45.878413], [-68.120129, -45.878498], [-68.120137, -45.878538], [-68.120147, -45.878578], [-68.12016, -45.878616], [-68.120174, -45.878654], [-68.120192, -45.87869], [-68.120211, -45.878725], [-68.120233, -45.878759], [-68.120258, -45.878792], [-68.120284, -45.878824], [-68.120313, -45.878855], [-68.120345, -45.878885], [-68.120379, -45.878914], [-68.120416, -45.878942], [-68.120454, -45.878969], [-68.120496, -45.878994], [-68.120539, -45.879019], [-68.120586, -45.879043], [-68.120634, -45.879065], [-68.120734, -45.879108], [-68.120844, -45.879149], [-68.120963, -45.879191], [-68.12109, -45.879232], [-68.121225, -45.879272], [-68.121368, -45.879311], [-68.121518, -45.879348], [-68.121674, -45.879385], [-68.121835, -45.87942], [-68.122, -45.879453], [-68.12217, -45.879485], [-68.122342, -45.879514], [-68.122517, -45.879542], [-68.122693, -45.879567], [-68.12287, -45.87959], [-68.123047, -45.87961], [-68.12322, -45.879627], [-68.123391, -45.879642], [-68.12356, -45.879655], [-68.123727, -45.879665], [-68.123891, -45.879672], [-68.124053, -45.879677], [-68.12421, -45.879679], [-68.124364, -45.879679], [-68.124512, -45.879676], [-68.124657, -45.87967], [-68.124796, -45.879662], [-68.124931, -45.879651], [-68.12506, -45.879637], [-68.125184, -45.879621], [-68.125303, -45.879603], [-68.125415, -45.879582], [-68.125521, -45.879559], [-68.125626, -45.879532], [-68.125731, -45.879502], [-68.125835, -45.879468], [-68.125939, -45.879431], [-68.126043, -45.879389], [-68.126147, -45.879345], [-68.126251, -45.879296], [-68.126355, -45.879244], [-68.126459, -45.879188], [-68.126563, -45.879128], [-68.126667, -45.879064], [-68.126772, -45.878997], [-68.126877, -45.878925], [-68.126983, -45.878849], [-68.12709, -45.878769], [-68.12727, -45.878626], [-68.127454, -45.87847], [-68.127645, -45.878299], [-68.127845, -45.87811], [-68.12802, -45.877939], [-68.128211, -45.877746], [-68.128827, -45.877108], [-68.129048, -45.876883], [-68.129266, -45.876667], [-68.129463, -45.876481], [-68.12966, -45.876303], [-68.129885, -45.876104], [-68.130615, -45.875471], [-68.130862, -45.875254], [-68.131077, -45.875062], [-68.13127, -45.874887], [-68.131514, -45.874657], [-68.131733, -45.874441], [-68.131932, -45.874234], [-68.132112, -45.874034], [-68.132208, -45.873922], [-68.132298, -45.873812], [-68.132383, -45.873704], [-68.132463, -45.873596], [-68.132538, -45.87349], [-68.132608, -45.873385], [-68.132674, -45.873281], [-68.132734, -45.873177], [-68.132791, -45.873074], [-68.132842, -45.872972], [-68.132889, -45.87287], [-68.132931, -45.872769], [-68.132969, -45.872669], [-68.133002, -45.872569], [-68.133031, -45.872469], [-68.133055, -45.87237], [-68.133071, -45.87229], [-68.133084, -45.872207], [-68.133094, -45.872123], [-68.133101, -45.872036], [-68.133105, -45.871946], [-68.133107, -45.871853], [-68.133106, -45.871756], [-68.133102, -45.871655], [-68.133089, -45.871482], [-68.133069, -45.871288], [-68.133046, -45.871102], [-68.132985, -45.870655], [-68.132958, -45.870429], [-68.132939, -45.870213], [-68.132931, -45.87002], [-68.132931, -45.86988], [-68.132937, -45.869736], [-68.132947, -45.869587], [-68.132962, -45.869433], [-68.132983, -45.869274], [-68.133009, -45.869109], [-68.13304, -45.868937], [-68.133076, -45.868757], [-68.133113, -45.868591], [-68.133155, -45.868417], [-68.133255, -45.868035], [-68.133364, -45.867649], [-68.133663, -45.866631], [-68.133746, -45.866332], [-68.133814, -45.866067], [-68.133884, -45.865767], [-68.133938, -45.865492], [-68.13396, -45.865362], [-68.133979, -45.865236], [-68.133994, -45.865115], [-68.134005, -45.864997], [-68.134015, -45.864853], [-68.13402, -45.864714], [-68.134019, -45.86458], [-68.134013, -45.864451], [-68.134002, -45.864327], [-68.133985, -45.864207], [-68.133963, -45.864091], [-68.133936, -45.863979], [-68.133903, -45.863871], [-68.133864, -45.863767], [-68.133821, -45.863666], [-68.133771, -45.86357], [-68.133716, -45.863477], [-68.133655, -45.863387], [-68.133589, -45.863301], [-68.133517, -45.863219], [-68.133467, -45.863166], [-68.133413, -45.863114], [-68.133358, -45.863063], [-68.133299, -45.863012], [-68.133237, -45.862961], [-68.133173, -45.862911], [-68.133036, -45.862813], [-68.132889, -45.862717], [-68.13273, -45.862623], [-68.13256, -45.862531], [-68.132379, -45.862441], [-68.132187, -45.862353], [-68.131984, -45.862268], [-68.13177, -45.862184], [-68.131544, -45.862103], [-68.131308, -45.862023], [-68.131059, -45.861946], [-68.1308, -45.86187], [-68.130528, -45.861797], [-68.130253, -45.861727], [-68.129966, -45.861659], [-68.129668, -45.861593], [-68.129358, -45.861528], [-68.129035, -45.861465], [-68.128701, -45.861403], [-68.128353, -45.861343], [-68.127991, -45.861284], [-68.127626, -45.861228], [-68.127246, -45.861173], [-68.126848, -45.861118], [-68.12643, -45.861063], [-68.126, -45.861009], [-68.125536, -45.860954], [-68.124356, -45.86082], [-68.124209, -45.860804], [-68.124061, -45.860791], [-68.123911, -45.860779], [-68.123758, -45.86077], [-68.123604, -45.860762], [-68.123447, -45.860756], [-68.123288, -45.860751], [-68.123127, -45.860749], [-68.122963, -45.860748], [-68.122796, -45.860749], [-68.122453, -45.860757], [-68.122097, -45.860772], [-68.121725, -45.860795], [-68.121415, -45.860818], [-68.121089, -45.860847], [-68.120746, -45.860881], [-68.120377, -45.86092], [-68.120054, -45.860958], [-68.119695, -45.861001], [-68.118069, -45.861204], [-68.11764, -45.861255], [-68.117255, -45.861296], [-68.116857, -45.861335], [-68.116485, -45.861367], [-68.116131, -45.861392], [-68.115794, -45.86141], [-68.115462, -45.861423], [-68.115143, -45.861428], [-68.114834, -45.861427], [-68.114535, -45.86142], [-68.114244, -45.861406], [-68.113961, -45.861385], [-68.113822, -45.861372], [-68.113685, -45.861358], [-68.11355, -45.861341], [-68.113416, -45.861323], [-68.113009, -45.861263], [-68.1126, -45.861198], [-68.112192, -45.861127], [-68.111785, -45.861052], [-68.11138, -45.860972], [-68.110977, -45.860887], [-68.110578, -45.860798], [-68.110183, -45.860705], [-68.109794, -45.860607], [-68.109411, -45.860506], [-68.109033, -45.860401], [-68.108662, -45.860293], [-68.108297, -45.86018], [-68.10794, -45.860065], [-68.107591, -45.859946], [-68.10725, -45.859824], [-68.106919, -45.8597], [-68.106597, -45.859573], [-68.106284, -45.859443], [-68.10598, -45.85931], [-68.105684, -45.859175], [-68.105398, -45.859037], [-68.105121, -45.858897], [-68.104854, -45.858754], [-68.104597, -45.858609], [-68.104349, -45.858462], [-68.104111, -45.858312], [-68.103884, -45.85816], [-68.103666, -45.858007], [-68.103458, -45.857851], [-68.103261, -45.857693], [-68.103074, -45.857533], [-68.102956, -45.857427], [-68.10284, -45.857318], [-68.102724, -45.857206], [-68.10261, -45.857091], [-68.102497, -45.856973], [-68.102385, -45.856853], [-68.102274, -45.856729], [-68.102165, -45.856603], [-68.102057, -45.856475], [-68.101951, -45.856344], [-68.101847, -45.856211], [-68.101745, -45.856075], [-68.101644, -45.855938], [-68.101545, -45.855798], [-68.101449, -45.855657], [-68.101354, -45.855514], [-68.101262, -45.855369], [-68.101172, -45.855222], [-68.101084, -45.855075], [-68.100999, -45.854926], [-68.100917, -45.854776], [-68.100838, -45.854626], [-68.100761, -45.854475], [-68.100687, -45.854324], [-68.100617, -45.854173], [-68.100549, -45.854022], [-68.100485, -45.853871], [-68.100424, -45.85372], [-68.100367, -45.85357], [-68.100313, -45.853421], [-68.100262, -45.853273], [-68.100215, -45.853126], [-68.10016, -45.85293], [-68.100114, -45.852731], [-68.100078, -45.852529], [-68.100052, -45.852323], [-68.100035, -45.852115], [-68.100027, -45.851904], [-68.100029, -45.851689], [-68.100041, -45.851471], [-68.100062, -45.851249], [-68.100092, -45.851024], [-68.100133, -45.850794], [-68.100182, -45.85056], [-68.100242, -45.850322], [-68.100311, -45.850079], [-68.10039, -45.84983], [-68.100479, -45.849576], [-68.100559, -45.849364], [-68.100645, -45.849148], [-68.100739, -45.848927], [-68.10084, -45.8487], [-68.100948, -45.848467], [-68.101065, -45.848227], [-68.10119, -45.847979], [-68.101324, -45.847722], [-68.101568, -45.847271], [-68.101849, -45.846771], [-68.10213, -45.846285], [-68.102828, -45.845091], [-68.103019, -45.84476], [-68.103187, -45.844462], [-68.103366, -45.844137], [-68.103528, -45.843833], [-68.103676, -45.843546], [-68.103812, -45.843272], [-68.103992, -45.842904], [-68.104185, -45.842522], [-68.104393, -45.842121], [-68.104619, -45.841694], [-68.104838, -45.84129], [-68.105084, -45.84084], [-68.105994, -45.839195], [-68.106107, -45.838982], [-68.106217, -45.838755], [-68.106327, -45.838512], [-68.106438, -45.838248], [-68.10653, -45.838016], [-68.106629, -45.837755], [-68.106939, -45.836906], [-68.107051, -45.836603], [-68.107162, -45.836318], [-68.107268, -45.836062], [-68.107373, -45.835821], [-68.107479, -45.835598], [-68.107586, -45.835387], [-68.107695, -45.835189], [-68.107774, -45.835055], [-68.107855, -45.834925], [-68.107938, -45.834801], [-68.108022, -45.83468], [-68.10811, -45.834564], [-68.108199, -45.834452], [-68.108291, -45.834344], [-68.108385, -45.834239], [-68.108482, -45.834138], [-68.108582, -45.834041], [-68.108684, -45.833947], [-68.108789, -45.833857], [-68.108898, -45.83377], [-68.109009, -45.833686], [-68.109123, -45.833606], [-68.109241, -45.833529], [-68.109397, -45.833432], [-68.109559, -45.833337], [-68.109727, -45.833242], [-68.109902, -45.833149], [-68.110081, -45.833058], [-68.110266, -45.832968], [-68.110455, -45.83288], [-68.110648, -45.832794], [-68.110845, -45.83271], [-68.111045, -45.832629], [-68.111247, -45.832551], [-68.111451, -45.832476], [-68.111657, -45.832404], [-68.111863, -45.832335], [-68.11207, -45.83227], [-68.112277, -45.832209], [-68.112435, -45.832165], [-68.112599, -45.832124], [-68.112768, -45.832085], [-68.112943, -45.832048], [-68.113124, -45.832013], [-68.113312, -45.83198], [-68.113509, -45.831949], [-68.113715, -45.831919], [-68.114065, -45.831874], [-68.114457, -45.83183], [-68.114846, -45.831792], [-68.115845, -45.831698], [-68.116133, -45.831669], [-68.11639, -45.831641], [-68.116534, -45.831625], [-68.116685, -45.831611], [-68.116845, -45.831599], [-68.117016, -45.831587], [-68.117375, -45.831569], [-68.118097, -45.831541], [-68.1184, -45.831527], [-68.118714, -45.831508], [-68.118992, -45.831485], [-68.119154, -45.831468], [-68.119307, -45.831448], [-68.119454, -45.831427], [-68.119594, -45.831403], [-68.119728, -45.831376], [-68.119856, -45.831347], [-68.11998, -45.831315], [-68.120098, -45.831281], [-68.120224, -45.83124], [-68.120351, -45.831196], [-68.120479, -45.831149], [-68.120606, -45.831098], [-68.120734, -45.831044], [-68.120862, -45.830987], [-68.12099, -45.830926], [-68.121118, -45.830863], [-68.121246, -45.830796], [-68.121373, -45.830727], [-68.1215, -45.830654], [-68.121625, -45.830579], [-68.12175, -45.830501], [-68.121873, -45.830421], [-68.121995, -45.830338], [-68.122116, -45.830253], [-68.122235, -45.830166], [-68.122352, -45.830076], [-68.122467, -45.829985], [-68.12258, -45.829892], [-68.12269, -45.829797], [-68.122796, -45.829701], [-68.1229, -45.829605], [-68.123, -45.829507], [-68.123097, -45.829409], [-68.123189, -45.82931], [-68.123278, -45.829211], [-68.123363, -45.829112], [-68.123443, -45.829013], [-68.123519, -45.828915], [-68.12359, -45.828817], [-68.123656, -45.82872], [-68.123726, -45.828608], [-68.123791, -45.828492], [-68.123853, -45.828372], [-68.123909, -45.828248], [-68.123961, -45.828119], [-68.124009, -45.827987], [-68.124052, -45.827851], [-68.12409, -45.827712], [-68.124123, -45.827569], [-68.124152, -45.827423], [-68.124175, -45.827274], [-68.124194, -45.827122], [-68.124208, -45.826968], [-68.124216, -45.826812], [-68.12422, -45.826655], [-68.124219, -45.826496], [-68.124212, -45.826334], [-68.124201, -45.826172], [-68.124184, -45.826009], [-68.124163, -45.825847], [-68.124136, -45.825685], [-68.124104, -45.825524], [-68.124068, -45.825364], [-68.124027, -45.825206], [-68.123981, -45.825051], [-68.123931, -45.824898], [-68.123876, -45.824748], [-68.123818, -45.824602], [-68.123755, -45.82446], [-68.123688, -45.824322], [-68.123618, -45.824188], [-68.123544, -45.82406], [-68.123486, -45.82397], [-68.123424, -45.823881], [-68.123355, -45.823792], [-68.123281, -45.823705], [-68.123201, -45.823618], [-68.123116, -45.823532], [-68.123025, -45.823446], [-68.122928, -45.823361], [-68.122825, -45.823277], [-68.122716, -45.823193], [-68.122601, -45.823109], [-68.12248, -45.823026], [-68.122353, -45.822943], [-68.122218, -45.82286], [-68.122077, -45.822776], [-68.121929, -45.822692], [-68.121679, -45.822558], [-68.121407, -45.822422], [-68.121112, -45.822281], [-68.120786, -45.822134], [-68.120497, -45.822007], [-68.12017, -45.821868], [-68.119075, -45.821415], [-68.118675, -45.821247], [-68.11829, -45.82108], [-68.11795, -45.820927], [-68.117779, -45.820847], [-68.117615, -45.820768], [-68.117459, -45.820691], [-68.11731, -45.820615], [-68.117167, -45.820539], [-68.11703, -45.820464], [-68.116898, -45.820389], [-68.116772, -45.820315], [-68.116505, -45.820152], [-68.11623, -45.81998], [-68.115942, -45.819796], [-68.115637, -45.819597], [-68.115076, -45.819224], [-68.113733, -45.818319], [-68.113369, -45.818077], [-68.113037, -45.817861], [-68.112685, -45.817637], [-68.112351, -45.81743], [-68.112028, -45.817236], [-68.111713, -45.817054], [-68.111298, -45.81682], [-68.110874, -45.816587], [-68.11044, -45.816354], [-68.109996, -45.816121], [-68.109541, -45.815888], [-68.109076, -45.815655], [-68.1086, -45.815421], [-68.108112, -45.815187], [-68.107614, -45.814952], [-68.107102, -45.814716], [-68.106577, -45.814478], [-68.106037, -45.814237], [-68.105481, -45.813994], [-68.104906, -45.813747], [-68.104312, -45.813496], [-68.103694, -45.813238], [-68.102667, -45.812814], [-68.101971, -45.81253], [-68.101334, -45.812277], [-68.100749, -45.812052], [-68.100458, -45.811942], [-68.100174, -45.811838], [-68.099897, -45.811738], [-68.099625, -45.811643], [-68.099358, -45.811552], [-68.099095, -45.811465], [-68.098837, -45.811381], [-68.098581, -45.811301], [-68.097877, -45.811086], [-68.097305, -45.810917], [-68.096784, -45.81077], [-68.096538, -45.810703], [-68.096299, -45.81064], [-68.096062, -45.81058], [-68.095829, -45.810523], [-68.095603, -45.81047], [-68.09538, -45.81042], [-68.095161, -45.810373], [-68.094946, -45.81033], [-68.094734, -45.810289], [-68.094526, -45.810252], [-68.09414, -45.810187], [-68.093761, -45.810128], [-68.093387, -45.810075], [-68.093018, -45.810027], [-68.092655, -45.809984], [-68.092297, -45.809947], [-68.091944, -45.809915], [-68.091597, -45.809888], [-68.091255, -45.809867], [-68.090918, -45.809851], [-68.090586, -45.80984], [-68.090259, -45.809835], [-68.089938, -45.809836], [-68.089622, -45.809841], [-68.089311, -45.809852], [-68.089005, -45.809869], [-68.088839, -45.809881], [-68.088667, -45.809897], [-68.088485, -45.809916], [-68.088291, -45.809939], [-68.087921, -45.809989], [-68.087236, -45.810091], [-68.086962, -45.81013], [-68.086681, -45.810167], [-68.086428, -45.810195]]]]}, "properties": {"areayacimiento": "EL TRIANGULO", "yacimiento": "EL TRIANGULO"}}, {"type": "Feature", "geometry": {"type": "MultiPolygon", "coordinates": [[[[-69.316371, -37.695402], [-69.288025, -37.695475], [-69.287956, -37.677456], [-69.24159, -37.67756], [-69.241807, -37.744479], [-69.282766, -37.744388], [-69.282867, -37.771038], [-69.294248, -37.770992], [-69.373709, -37.770762], [-69.468774, -37.770431], [-69.469219, -37.77043], [-69.510059, -37.770274], [-69.510058, -37.770244], [-69.509656, -37.711497], [-69.509603, -37.71148], [-69.407197, -37.711878], [-69.407006, -37.677098], [-69.352549, -37.67728], [-69.316295, -37.677383], [-69.316371, -37.695402]]]]}, "properties": {"areayacimiento": "AGUADA LOS LOROS", "yacimiento": "AGUADA LOS LOROS"}}, {"type": "Feature", "geometry": {"type": "MultiPolygon", "coordinates": [[[[-68.858598, -39.006542], [-68.854799, -39.006309], [-68.845875, -39.002209], [-68.843116, -39.006495], [-68.852043, -39.009857], [-68.85556, -39.012175], [-68.855549, -39.017652], [-68.833947, -39.016139], [-68.830606, -39.019992], [-68.830968, -39.027783], [-68.851804, -39.033746], [-68.872272, -39.033993], [-68.874709, -39.023722], [-68.87943, -39.023243], [-68.88248, -39.020872], [-68.882396, -39.014343], [-68.874872, -39.010981], [-68.874889, -39.001522], [-68.865404, -39.001511], [-68.858598, -39.006542]]]]}, "properties": {"areayacimiento": "LA ESPERANZA", "yacimiento": "LA ESPERANZA"}}, {"type": "Feature", "geometry": {"type": "MultiPolygon", "coordinates": [[[[-68.868744, -38.990311], [-68.891204, -38.990334], [-68.896198, -39.001134], [-68.903203, -39.001811], [-68.910626, -39.012202], [-68.906695, -39.018124], [-68.905217, -39.024214], [-68.900114, -39.030132], [-68.904737, -39.036452], [-68.916103, -39.035186], [-68.924854, -39.032516], [-68.932519, -39.026158], [-68.934939, -39.020742], [-68.933127, -39.016147], [-68.937924, -39.016739], [-68.938322, -39.018226], [-68.939027, -39.02036], [-68.942867, -39.022496], [-68.94926, -39.022499], [-68.959727, -39.027172], [-68.977974, -39.034772], [-69.001236, -39.033528], [-69.002923, -39.031394], [-69.003585, -39.028808], [-68.99075, -39.023235], [-68.981841, -39.0182], [-68.974427, -39.015168], [-68.945358, -38.987967], [-68.936271, -38.987962], [-68.936283, -38.974175], [-68.868774, -38.974119], [-68.868744, -38.990311]]]]}, "properties": {"areayacimiento": "CHALLACO", "yacimiento": "CHALLACO"}}, {"type": "Feature", "geometry": {"type": "MultiPolygon", "coordinates": [[[[-69.26572, -39.140824], [-69.269338, -39.141578], [-69.272052, -39.141126], [-69.272504, -39.13811], [-69.272504, -39.133286], [-69.271901, -39.129065], [-69.270393, -39.124391], [-69.266775, -39.117908], [-69.262855, -39.113084], [-69.259086, -39.107656], [-69.254714, -39.10057], [-69.248834, -39.093635], [-69.241899, -39.087756], [-69.236622, -39.083836], [-69.223054, -39.076298], [-69.211747, -39.072529], [-69.202399, -39.069815], [-69.186117, -39.067855], [-69.176317, -39.069212], [-69.171191, -39.071926], [-69.170287, -39.076147], [-69.173905, -39.082328], [-69.180991, -39.088057], [-69.194861, -39.095595], [-69.207374, -39.10238], [-69.223506, -39.109918], [-69.233004, -39.115797], [-69.24416, -39.124391], [-69.254563, -39.132834], [-69.26572, -39.140824]]]]}, "properties": {"areayacimiento": "RANQUIL CO", "yacimiento": "RANQUIL CO"}}, {"type": "Feature", "geometry": {"type": "MultiPolygon", "coordinates": [[[[-69.294515, -39.072981], [-69.293309, -39.071322], [-69.28947, -39.06908], [-69.289389, -39.069061], [-69.282454, -39.065593], [-69.275218, -39.062578], [-69.267227, -39.059412], [-69.258332, -39.055643], [-69.252302, -39.053834], [-69.248834, -39.053231], [-69.240391, -39.053231], [-69.235265, -39.054437], [-69.23225, -39.056548], [-69.232853, -39.061824], [-69.233301, -39.063072], [-69.234294, -39.064706], [-69.239487, -39.068307], [-69.255166, -39.072981], [-69.272956, -39.075242], [-69.289389, -39.075544], [-69.292103, -39.075092], [-69.294214, -39.073885], [-69.294515, -39.072981]]]]}, "properties": {"areayacimiento": "RANQUIL CO NORTE", "yacimiento": "RANQUIL CO"}}, {"type": "Feature", "geometry": {"type": "MultiPolygon", "coordinates": [[[[-69.179191, -38.94598], [-69.179375, -38.999427], [-69.172391, -38.999438], [-69.172438, -39.046224], [-69.172468, -39.054961], [-69.304114, -39.054679], [-69.30526, -39.054689], [-69.305205, -39.034454], [-69.304902, -38.945719], [-69.270531, -38.945813], [-69.270596, -38.962982], [-69.279264, -38.962961], [-69.279294, -38.970672], [-69.287856, -38.970651], [-69.287911, -38.98414], [-69.186484, -38.984346], [-69.186386, -38.945969], [-69.179191, -38.94598]]]]}, "properties": {"areayacimiento": "RANQUIL CO NORTE (CCS)", "yacimiento": "RANQUIL CO"}}, {"type": "Feature", "geometry": {"type": "MultiPolygon", "coordinates": [[[[-69.232457, -38.889231], [-69.236826, -38.897487], [-69.239917, -38.902111], [-69.242079, -38.901485], [-69.248238, -38.896653], [-69.252933, -38.897579], [-69.252423, -38.899202], [-69.281085, -38.904708], [-69.279795, -38.908859], [-69.293243, -38.911438], [-69.291391, -38.917334], [-69.280622, -38.915262], [-69.277048, -38.926629], [-69.274939, -38.931444], [-69.335396, -38.931223], [-69.33531, -38.913663], [-69.312276, -38.913686], [-69.312227, -38.902476], [-69.287082, -38.902531], [-69.28707, -38.896555], [-69.330618, -38.896417], [-69.330674, -38.910379], [-69.37918, -38.910227], [-69.379227, -38.919028], [-69.3963, -38.918971], [-69.396395, -38.929203], [-69.421716, -38.929133], [-69.430449, -38.929101], [-69.430493, -38.936325], [-69.448969, -38.936246], [-69.44858, -38.874098], [-69.203151, -38.87477], [-69.225792, -38.880322], [-69.229697, -38.887647], [-69.231289, -38.88713], [-69.232457, -38.889231]]]]}, "properties": {"areayacimiento": "LOMA NEGRA NI", "yacimiento": "LOMA NEGRA NI"}}, {"type": "Feature", "geometry": {"type": "MultiPolygon", "coordinates": [[[[-69.504433, -36.18308], [-69.502687, -36.182886], [-69.501524, -36.182886], [-69.500263, -36.182983], [-69.499488, -36.183565], [-69.4991, -36.184341], [-69.4991, -36.185311], [-69.4991, -36.186765], [-69.4991, -36.188317], [-69.4991, -36.19045], [-69.4991, -36.192292], [-69.499003, -36.193844], [-69.498712, -36.196171], [-69.497645, -36.19908], [-69.49493, -36.204413], [-69.492312, -36.207807], [-69.4895, -36.211104], [-69.48727, -36.213722], [-69.48533, -36.216825], [-69.484942, -36.219928], [-69.485621, -36.221577], [-69.486979, -36.222255], [-69.489015, -36.222255], [-69.490373, -36.222255], [-69.493573, -36.222255], [-69.499875, -36.222255], [-69.501912, -36.222643], [-69.505403, -36.223128], [-69.507924, -36.22371], [-69.511221, -36.223613], [-69.513354, -36.223225], [-69.51539, -36.222061], [-69.516457, -36.21954], [-69.516845, -36.216049], [-69.516845, -36.213722], [-69.516845, -36.208486], [-69.517039, -36.204995], [-69.518008, -36.203153], [-69.518881, -36.201019], [-69.518784, -36.198983], [-69.517814, -36.19685], [-69.515972, -36.194232], [-69.513354, -36.190838], [-69.510348, -36.187347], [-69.507148, -36.184438], [-69.504433, -36.18308]]]]}, "properties": {"areayacimiento": "RANQUIL CO                           ", "yacimiento": "RANQUIL CO"}}, {"type": "Feature", "geometry": {"type": "MultiPolygon", "coordinates": [[[[-68.403513, -37.795999], [-68.375557, -37.795945], [-68.375553, -37.805471], [-68.403513, -37.805473], [-68.403513, -37.795999]]]]}, "properties": {"areayacimiento": "EL CARACOL NORTE", "yacimiento": "EL CARACOL"}}, {"type": "Feature", "geometry": {"type": "MultiPolygon", "coordinates": [[[[-68.65119, -38.220595], [-68.650255, -38.228601], [-68.607317, -38.228654], [-68.607477, -38.24819], [-68.685053, -38.248424], [-68.685327, -38.208193], [-68.682242, -38.19461], [-68.67843, -38.192644], [-68.673003, -38.190718], [-68.663724, -38.191419], [-68.656581, -38.193316], [-68.65119, -38.220595]]]]}, "properties": {"areayacimiento": "MEDANO DE LA MORA", "yacimiento": "MEDANO DE LA MORA"}}]}