{
"type": "FeatureCollection",
"name": "yacimientos_vm_EXTARGYPF",
"crs": { "type": "name", "properties": { "name": "urn:ogc:def:crs:OGC:1.3:CRS84" } },
"features": [
{ "type": "Feature", "properties": { "yacimiento": "AGUA DEL CAJON - EL SALITRAL", "num_pozos": 117, "tipo_dominante": "ARGENTINA", "color": "#9BBCDC", "radio": 50 }, "geometry": { "type": "Point", "coordinates": [ -68.433308507014374, -38.839022960277497 ] } },
{ "type": "Feature", "properties": { "yacimiento": "AGUADA CÁNEPA", "num_pozos": 10, "tipo_dominante": "ARGENTINA", "color": "#9BBCDC", "radio": 30 }, "geometry": { "type": "Point", "coordinates": [ -68.4697831, -38.0670911 ] } },
{ "type": "Feature", "properties": { "yacimiento": "AGUADA DE CASTRO", "num_pozos": 9, "tipo_dominante": "ARGENTINA", "color": "#9BBCDC", "radio": 30 }, "geometry": { "type": "Point", "coordinates": [ -69.580000444444451, -38.263617 ] } },
{ "type": "Feature", "properties": { "yacimiento": "AGUADA DE LA ARENA", "num_pozos": 33, "tipo_dominante": "YPF", "color": "#0178D6", "radio": 50 }, "geometry": { "type": "Point", "coordinates": [ -69.150673132424245, -38.21480439545455 ] } },
{ "type": "Feature", "properties": { "yacimiento": "AGUADA DEL CHIVATO", "num_pozos": 1, "tipo_dominante": "ARGENTINA", "color": "#9BBCDC", "radio": 30 }, "geometry": { "type": "Point", "coordinates": [ -69.010056, -37.482825 ] } },
{ "type": "Feature", "properties": { "yacimiento": "AGUADA FEDERAL", "num_pozos": 23, "tipo_dominante": "ARGENTINA", "color": "#9BBCDC", "radio": 30 }, "geometry": { "type": "Point", "coordinates": [ -68.721899701014465, -38.089027236328491 ] } },
{ "type": "Feature", "properties": { "yacimiento": "AGUADA LOS LOROS", "num_pozos": 3, "tipo_dominante": "ARGENTINA", "color": "#9BBCDC", "radio": 30 }, "geometry": { "type": "Point", "coordinates": [ -69.236359666666672, -37.615130333333333 ] } },
{ "type": "Feature", "properties": { "yacimiento": "AGUADA PICHANA ESTE MULICHINCO VACA MUERTA", "num_pozos": 118, "tipo_dominante": "EXTRANJERA", "color": "#F4785E", "radio": 50 }, "geometry": { "type": "Point", "coordinates": [ -69.170083771275259, -38.380209814469701 ] } },
{ "type": "Feature", "properties": { "yacimiento": "AGUADA PICHANA OESTE", "num_pozos": 49, "tipo_dominante": "ARGENTINA", "color": "#9BBCDC", "radio": 50 }, "geometry": { "type": "Point", "coordinates": [ -69.364898062500018, -38.496761770833338 ] } },
{ "type": "Feature", "properties": { "yacimiento": "AGUADA VILLANUEVA", "num_pozos": 2, "tipo_dominante": "ARGENTINA", "color": "#9BBCDC", "radio": 30 }, "geometry": { "type": "Point", "coordinates": [ -69.28381005, -38.772445385 ] } },
{ "type": "Feature", "properties": { "yacimiento": "AGUILA MORA", "num_pozos": 4, "tipo_dominante": "ARGENTINA", "color": "#9BBCDC", "radio": 30 }, "geometry": { "type": "Point", "coordinates": [ -69.082076277499993, -37.682411792499998 ] } },
{ "type": "Feature", "properties": { "yacimiento": "ANTICLINAL CAMPAMENTO", "num_pozos": 17, "tipo_dominante": "ARGENTINA", "color": "#9BBCDC", "radio": 30 }, "geometry": { "type": "Point", "coordinates": [ -69.71649023, -39.0119005 ] } },
{ "type": "Feature", "properties": { "yacimiento": "BAJADA DEL PALO ESTE", "num_pozos": 23, "tipo_dominante": "ARGENTINA", "color": "#9BBCDC", "radio": 30 }, "geometry": { "type": "Point", "coordinates": [ -68.413427870869569, -38.180636716956521 ] } },
{ "type": "Feature", "properties": { "yacimiento": "BAJADA DEL PALO OESTE", "num_pozos": 128, "tipo_dominante": "ARGENTINA", "color": "#9BBCDC", "radio": 50 }, "geometry": { "type": "Point", "coordinates": [ -68.593101630468794, -38.19766612515626 ] } },
{ "type": "Feature", "properties": { "yacimiento": "BAJO DEL CHOIQUE", "num_pozos": 23, "tipo_dominante": "ARGENTINA", "color": "#9BBCDC", "radio": 30 }, "geometry": { "type": "Point", "coordinates": [ -69.146823328405802, -37.699343115748803 ] } },
{ "type": "Feature", "properties": { "yacimiento": "BAJO DEL TORO NORTE", "num_pozos": 20, "tipo_dominante": "YPF", "color": "#0178D6", "radio": 30 }, "geometry": { "type": "Point", "coordinates": [ -69.07372245900001, -37.524212319499995 ] } },
{ "type": "Feature", "properties": { "yacimiento": "BANDURRIA CENTRO", "num_pozos": 25, "tipo_dominante": "ARGENTINA", "color": "#9BBCDC", "radio": 30 }, "geometry": { "type": "Point", "coordinates": [ -68.825284516799996, -38.182314146800003 ] } },
{ "type": "Feature", "properties": { "yacimiento": "BANDURRIA NORTE", "num_pozos": 4, "tipo_dominante": "ARGENTINA", "color": "#9BBCDC", "radio": 30 }, "geometry": { "type": "Point", "coordinates": [ -69.013732952500007, -38.123669005 ] } },
{ "type": "Feature", "properties": { "yacimiento": "BANDURRIA SUR", "num_pozos": 172, "tipo_dominante": "YPF", "color": "#0178D6", "radio": 50 }, "geometry": { "type": "Point", "coordinates": [ -68.703112605581381, -38.286540846569771 ] } },
{ "type": "Feature", "properties": { "yacimiento": "BARDA GONZALEZ", "num_pozos": 2, "tipo_dominante": "YPF", "color": "#0178D6", "radio": 30 }, "geometry": { "type": "Point", "coordinates": [ -69.123466175, -38.841419725 ] } },
{ "type": "Feature", "properties": { "yacimiento": "BARREALES COLORADOS", "num_pozos": 1, "tipo_dominante": "YPF", "color": "#0178D6", "radio": 30 }, "geometry": { "type": "Point", "coordinates": [ -68.84713934, -38.44703788 ] } },
{ "type": "Feature", "properties": { "yacimiento": "BARROSA NORTE", "num_pozos": 20, "tipo_dominante": "YPF", "color": "#0178D6", "radio": 30 }, "geometry": { "type": "Point", "coordinates": [ -68.8780340685, -38.709817285 ] } },
{ "type": "Feature", "properties": { "yacimiento": "CENTENARIO CENTRO", "num_pozos": 117, "tipo_dominante": "ARGENTINA", "color": "#9BBCDC", "radio": 50 }, "geometry": { "type": "Point", "coordinates": [ -68.2279606613303, -38.915278724351893 ] } },
{ "type": "Feature", "properties": { "yacimiento": "CERRO LAS NIÑAS", "num_pozos": 5, "tipo_dominante": "ARGENTINA", "color": "#9BBCDC", "radio": 30 }, "geometry": { "type": "Point", "coordinates": [ -69.4142480470382, -37.616679909765594 ] } },
{ "type": "Feature", "properties": { "yacimiento": "CHALLACO", "num_pozos": 1, "tipo_dominante": "ARGENTINA", "color": "#9BBCDC", "radio": 30 }, "geometry": { "type": "Point", "coordinates": [ -68.9098241, -38.98370477 ] } },
{ "type": "Feature", "properties": { "yacimiento": "CHARCO BAYO", "num_pozos": 4, "tipo_dominante": "ARGENTINA", "color": "#9BBCDC", "radio": 30 }, "geometry": { "type": "Point", "coordinates": [ -68.097322407259341, -38.188271111107333 ] } },
{ "type": "Feature", "properties": { "yacimiento": "CHIHUIDO DE LA SIERRA NEGRA", "num_pozos": 2, "tipo_dominante": "YPF", "color": "#0178D6", "radio": 30 }, "geometry": { "type": "Point", "coordinates": [ -69.173738415, -37.35098713 ] } },
{ "type": "Feature", "properties": { "yacimiento": "COIRON AMARGO SUR ESTE", "num_pozos": 28, "tipo_dominante": "ARGENTINA", "color": "#9BBCDC", "radio": 30 }, "geometry": { "type": "Point", "coordinates": [ -68.374725964285702, -38.344476892857138 ] } },
{ "type": "Feature", "properties": { "yacimiento": "COIRON AMARGO SUR OESTE", "num_pozos": 39, "tipo_dominante": "EXTRANJERA", "color": "#F4785E", "radio": 50 }, "geometry": { "type": "Point", "coordinates": [ -68.475738281217261, -38.405492097790592 ] } },
{ "type": "Feature", "properties": { "yacimiento": "CRUZ DE LORENA", "num_pozos": 63, "tipo_dominante": "EXTRANJERA", "color": "#F4785E", "radio": 50 }, "geometry": { "type": "Point", "coordinates": [ -68.517427877933287, -38.358578800108504 ] } },
{ "type": "Feature", "properties": { "yacimiento": "CUPEN MAHUIDA", "num_pozos": 171, "tipo_dominante": "YPF", "color": "#0178D6", "radio": 50 }, "geometry": { "type": "Point", "coordinates": [ -68.915070845904793, -38.753131833850901 ] } },
{ "type": "Feature", "properties": { "yacimiento": "EL CARACOL", "num_pozos": 1, "tipo_dominante": "ARGENTINA", "color": "#9BBCDC", "radio": 30 }, "geometry": { "type": "Point", "coordinates": [ -68.45239, -37.95417 ] } },
{ "type": "Feature", "properties": { "yacimiento": "EL CORDON OESTE", "num_pozos": 2, "tipo_dominante": "YPF", "color": "#0178D6", "radio": 30 }, "geometry": { "type": "Point", "coordinates": [ -68.72765123, -38.630279595 ] } },
{ "type": "Feature", "properties": { "yacimiento": "EL MANGRULLO", "num_pozos": 94, "tipo_dominante": "ARGENTINA", "color": "#9BBCDC", "radio": 50 }, "geometry": { "type": "Point", "coordinates": [ -69.425848223618701, -38.573011462393609 ] } },
{ "type": "Feature", "properties": { "yacimiento": "EL OREJANO", "num_pozos": 35, "tipo_dominante": "YPF", "color": "#0178D6", "radio": 50 }, "geometry": { "type": "Point", "coordinates": [ -69.213829006, -37.99256201485715 ] } },
{ "type": "Feature", "properties": { "yacimiento": "EL TRAPIAL", "num_pozos": 35, "tipo_dominante": "EXTRANJERA", "color": "#F4785E", "radio": 30 }, "geometry": { "type": "Point", "coordinates": [ -69.375899883874084, -37.478219664633329 ] } },
{ "type": "Feature", "properties": { "yacimiento": "EL TRIANGULO", "num_pozos": 1, "tipo_dominante": "YPF", "color": "#0178D6", "radio": 30 }, "geometry": { "type": "Point", "coordinates": [ -68.8151, -38.7205 ] } },
{ "type": "Feature", "properties": { "yacimiento": "FILO MORADO", "num_pozos": 2, "tipo_dominante": "YPF", "color": "#0178D6", "radio": 30 }, "geometry": { "type": "Point", "coordinates": [ -69.625920425, -37.338947935 ] } },
{ "type": "Feature", "properties": { "yacimiento": "FORTIN DE PIEDRA", "num_pozos": 169, "tipo_dominante": "ARGENTINA", "color": "#9BBCDC", "radio": 50 }, "geometry": { "type": "Point", "coordinates": [ -69.071342962490078, -38.506204480797969 ] } },
{ "type": "Feature", "properties": { "yacimiento": "GUANACO", "num_pozos": 32, "tipo_dominante": "YPF", "color": "#0178D6", "radio": 50 }, "geometry": { "type": "Point", "coordinates": [ -69.241298675909093, -38.864344511818189 ] } },
{ "type": "Feature", "properties": { "yacimiento": "HUINCUL", "num_pozos": 2, "tipo_dominante": "YPF", "color": "#0178D6", "radio": 30 }, "geometry": { "type": "Point", "coordinates": [ -69.147138575, -38.895620425 ] } },
{ "type": "Feature", "properties": { "yacimiento": "LA AMARGA CHICA", "num_pozos": 282, "tipo_dominante": "YPF", "color": "#0178D6", "radio": 50 }, "geometry": { "type": "Point", "coordinates": [ -68.634620222482255, -38.212948273404244 ] } },
{ "type": "Feature", "properties": { "yacimiento": "LA ANGOSTURA SUR I", "num_pozos": 37, "tipo_dominante": "YPF", "color": "#0178D6", "radio": 50 }, "geometry": { "type": "Point", "coordinates": [ -68.685617603783783, -38.713305942162158 ] } },
{ "type": "Feature", "properties": { "yacimiento": "LA ANGOSTURA SUR II", "num_pozos": 8, "tipo_dominante": "YPF", "color": "#0178D6", "radio": 30 }, "geometry": { "type": "Point", "coordinates": [ -68.686726295, -38.665027492500002 ] } },
{ "type": "Feature", "properties": { "yacimiento": "LA CALERA", "num_pozos": 93, "tipo_dominante": "ARGENTINA", "color": "#9BBCDC", "radio": 50 }, "geometry": { "type": "Point", "coordinates": [ -69.001191031397866, -38.341363589677428 ] } },
{ "type": "Feature", "properties": { "yacimiento": "LA ESCALONADA", "num_pozos": 5, "tipo_dominante": "EXTRANJERA", "color": "#F4785E", "radio": 30 }, "geometry": { "type": "Point", "coordinates": [ -69.178924166666661, -37.714666433333321 ] } },
{ "type": "Feature", "properties": { "yacimiento": "LA ESPERANZA", "num_pozos": 2, "tipo_dominante": "ARGENTINA", "color": "#9BBCDC", "radio": 30 }, "geometry": { "type": "Point", "coordinates": [ -68.85435948, -39.00866388 ] } },
{ "type": "Feature", "properties": { "yacimiento": "LA RIBERA BLOQUE I", "num_pozos": 20, "tipo_dominante": "YPF", "color": "#0178D6", "radio": 30 }, "geometry": { "type": "Point", "coordinates": [ -69.014820646, -38.432395304 ] } },
{ "type": "Feature", "properties": { "yacimiento": "LAS CHIVAS NC", "num_pozos": 1, "tipo_dominante": "ARGENTINA", "color": "#9BBCDC", "radio": 30 }, "geometry": { "type": "Point", "coordinates": [ -68.647945, -38.85814 ] } },
{ "type": "Feature", "properties": { "yacimiento": "LINDERO ATRAVESADO", "num_pozos": 172, "tipo_dominante": "ARGENTINA", "color": "#9BBCDC", "radio": 50 }, "geometry": { "type": "Point", "coordinates": [ -68.283114309999988, -38.73019546 ] } },
{ "type": "Feature", "properties": { "yacimiento": "LOMA CAMPANA-LLL", "num_pozos": 715, "tipo_dominante": "YPF", "color": "#0178D6", "radio": 50 }, "geometry": { "type": "Point", "coordinates": [ -68.595303675621082, -38.36002498782517 ] } },
{ "type": "Feature", "properties": { "yacimiento": "LOMA COLORADA", "num_pozos": 60, "tipo_dominante": "YPF", "color": "#0178D6", "radio": 50 }, "geometry": { "type": "Point", "coordinates": [ -68.545239108166683, -38.102047161666675 ] } },
{ "type": "Feature", "properties": { "yacimiento": "LOMA JARILLOSA ESTE", "num_pozos": 6, "tipo_dominante": "ARGENTINA", "color": "#9BBCDC", "radio": 30 }, "geometry": { "type": "Point", "coordinates": [ -68.428973168333343, -38.24112988666667 ] } },
{ "type": "Feature", "properties": { "yacimiento": "LOMA LA LATA", "num_pozos": 1, "tipo_dominante": "YPF", "color": "#0178D6", "radio": 30 }, "geometry": { "type": "Point", "coordinates": [ -68.7889, -38.4565 ] } },
{ "type": "Feature", "properties": { "yacimiento": "LOMA NEGRA NI", "num_pozos": 3, "tipo_dominante": "ARGENTINA", "color": "#9BBCDC", "radio": 30 }, "geometry": { "type": "Point", "coordinates": [ -69.389088736666665, -38.90171448666667 ] } },
{ "type": "Feature", "properties": { "yacimiento": "LOS TOLDOS ESTE", "num_pozos": 7, "tipo_dominante": "ARGENTINA", "color": "#9BBCDC", "radio": 30 }, "geometry": { "type": "Point", "coordinates": [ -69.139743504041149, -37.451069099491143 ] } },
{ "type": "Feature", "properties": { "yacimiento": "MATA MORA NORTE", "num_pozos": 37, "tipo_dominante": "EXTRANJERA", "color": "#F4785E", "radio": 50 }, "geometry": { "type": "Point", "coordinates": [ -68.346305783783791, -38.488400216216213 ] } },
{ "type": "Feature", "properties": { "yacimiento": "MEDANO DE LA MORA", "num_pozos": 17, "tipo_dominante": "ARGENTINA", "color": "#9BBCDC", "radio": 30 }, "geometry": { "type": "Point", "coordinates": [ -68.6637373, -38.224636934117648 ] } },
{ "type": "Feature", "properties": { "yacimiento": "NORTE DEL OCTOGONO", "num_pozos": 11, "tipo_dominante": "YPF", "color": "#0178D6", "radio": 30 }, "geometry": { "type": "Point", "coordinates": [ -69.16419313363636, -38.886028681818189 ] } },
{ "type": "Feature", "properties": { "yacimiento": "PAMPA DE LAS YEGUAS I", "num_pozos": 2, "tipo_dominante": "ARGENTINA", "color": "#9BBCDC", "radio": 30 }, "geometry": { "type": "Point", "coordinates": [ -69.33514354, -37.80284887 ] } },
{ "type": "Feature", "properties": { "yacimiento": "PASO DE LAS BARDAS NORTE", "num_pozos": 2, "tipo_dominante": "YPF", "color": "#0178D6", "radio": 30 }, "geometry": { "type": "Point", "coordinates": [ -69.47790182, -37.120220635 ] } },
{ "type": "Feature", "properties": { "yacimiento": "PUESTO PARADA", "num_pozos": 15, "tipo_dominante": "ARGENTINA", "color": "#9BBCDC", "radio": 30 }, "geometry": { "type": "Point", "coordinates": [ -68.704168293899002, -38.820457916319 ] } },
{ "type": "Feature", "properties": { "yacimiento": "PUESTO SILVA OESTE", "num_pozos": 3, "tipo_dominante": "ARGENTINA", "color": "#9BBCDC", "radio": 30 }, "geometry": { "type": "Point", "coordinates": [ -68.274782333333334, -38.422403 ] } },
{ "type": "Feature", "properties": { "yacimiento": "PUNTA SENILLOSA NC", "num_pozos": 9, "tipo_dominante": "ARGENTINA", "color": "#9BBCDC", "radio": 30 }, "geometry": { "type": "Point", "coordinates": [ -68.583822633333327, -38.876030877777779 ] } },
{ "type": "Feature", "properties": { "yacimiento": "RANQUIL CO", "num_pozos": 22, "tipo_dominante": "ARGENTINA", "color": "#9BBCDC", "radio": 30 }, "geometry": { "type": "Point", "coordinates": [ -69.192122706190474, -39.082427424761896 ] } },
{ "type": "Feature", "properties": { "yacimiento": "RINCON DE ARANDA", "num_pozos": 20, "tipo_dominante": "ARGENTINA", "color": "#9BBCDC", "radio": 30 }, "geometry": { "type": "Point", "coordinates": [ -68.599569722, -37.999134333499995 ] } },
{ "type": "Feature", "properties": { "yacimiento": "RINCON DEL MANGRULLO", "num_pozos": 119, "tipo_dominante": "YPF", "color": "#0178D6", "radio": 50 }, "geometry": { "type": "Point", "coordinates": [ -69.329645198319341, -38.574707741428576 ] } },
{ "type": "Feature", "properties": { "yacimiento": "RINCON LA CENIZA", "num_pozos": 14, "tipo_dominante": "EXTRANJERA", "color": "#F4785E", "radio": 30 }, "geometry": { "type": "Point", "coordinates": [ -69.213845771984126, -37.839446817857144 ] } },
{ "type": "Feature", "properties": { "yacimiento": "RIO NEUQUEN", "num_pozos": 99, "tipo_dominante": "YPF", "color": "#0178D6", "radio": 50 }, "geometry": { "type": "Point", "coordinates": [ -68.241453758587511, -38.715333815932304 ] } },
{ "type": "Feature", "properties": { "yacimiento": "SAN ROQUE", "num_pozos": 4, "tipo_dominante": "EXTRANJERA", "color": "#F4785E", "radio": 30 }, "geometry": { "type": "Point", "coordinates": [ -69.001223025, -38.006049067500001 ] } },
{ "type": "Feature", "properties": { "yacimiento": "SIERRA BARROSA", "num_pozos": 5, "tipo_dominante": "YPF", "color": "#0178D6", "radio": 30 }, "geometry": { "type": "Point", "coordinates": [ -68.860126366, -38.72666563 ] } },
{ "type": "Feature", "properties": { "yacimiento": "SIERRA CHATA", "num_pozos": 35, "tipo_dominante": "ARGENTINA", "color": "#9BBCDC", "radio": 50 }, "geometry": { "type": "Point", "coordinates": [ -69.248761287640448, -38.133121852450024 ] } },
{ "type": "Feature", "properties": { "yacimiento": "SIERRAS BLANCAS", "num_pozos": 39, "tipo_dominante": "EXTRANJERA", "color": "#F4785E", "radio": 50 }, "geometry": { "type": "Point", "coordinates": [ -68.467212137382788, -38.476215251413073 ] } }
]
}
